{"type":"FeatureCollection","features":[{"type":"Feature","properties":{"name":"Quellón","comuna":"Quellón","cut":"10208","metro":null,"es_bbox":false},"geometry":{"type":"MultiPolygon","coordinates":[[[[-73.5253,-43.0675],[-73.5293,-43.0612],[-73.5449,-43.0621],[-73.546852,-43.0597],[-73.5135,-43.0597],[-73.5135,-43.06965947712419],[-73.5253,-43.0675]]],[[[-73.5604,-43.0635],[-73.5514,-43.0673],[-73.5323,-43.065],[-73.5289,-43.0734],[-73.5177,-43.0726],[-73.5135,-43.07632151898735],[-73.5135,-43.13153617021277],[-73.5321,-43.1256],[-73.5361,-43.1173],[-73.5445,-43.1222],[-73.5626,-43.1144],[-73.5752,-43.1187],[-73.5908,-43.1204],[-73.6221,-43.1211],[-73.6276,-43.118],[-73.6405,-43.1211],[-73.6376,-43.1281],[-73.6253,-43.1319],[-73.6159,-43.1389],[-73.6277,-43.1451],[-73.6442,-43.139],[-73.6612,-43.138],[-73.6934,-43.149320312499995],[-73.6934,-43.0597],[-73.56563278688525,-43.0597],[-73.5604,-43.0635]]],[[[-73.5501,-43.1498],[-73.5522,-43.1582],[-73.5496,-43.1683],[-73.5382,-43.172],[-73.5201,-43.1729],[-73.5135,-43.16635365853658],[-73.5135,-43.18513736654804],[-73.52020333333334,-43.188],[-73.5646662576687,-43.188],[-73.5628,-43.1841],[-73.5752,-43.1777],[-73.5785,-43.1653],[-73.5858,-43.1532],[-73.5871,-43.1452],[-73.5809,-43.1379],[-73.5557,-43.1361],[-73.5501,-43.1498]]],[[[-73.5166,-43.1521],[-73.5267,-43.159],[-73.5328,-43.1553],[-73.5288,-43.1452],[-73.5183,-43.1409],[-73.5135,-43.14650672268908],[-73.5135,-43.15512954545455],[-73.5166,-43.1521]]],[[[-73.6137,-43.1764],[-73.6075,-43.1823],[-73.6125,-43.1874],[-73.61226641221374,-43.188],[-73.64141818181817,-43.188],[-73.6421,-43.1874],[-73.6299,-43.1797],[-73.6253,-43.1692],[-73.612,-43.1682],[-73.6137,-43.1764]]]]}}]}