{"type":"FeatureCollection","features":[{"type":"Feature","properties":{"cut":10203,"comuna":"CHONCHI"},"geometry":{"type":"MultiPolygon","coordinates":[[[[-74.1667688679999,-42.82018851399994],[-74.16904110399992,-42.82036261899992],[-74.16754772599995,-42.82145942299991],[-74.16861562499992,-42.823358294999935],[-74.16742526199994,-42.823178544999905],[-74.1667688679999,-42.82018851399994]]],[[[-74.1699413369999,-42.768358802999956],[-74.16924655399993,-42.76564314399991],[-74.17010742899993,-42.76507304099994],[-74.17114236599991,-42.76599908599991],[-74.1699413369999,-42.768358802999956]]],[[[-74.15925659099992,-42.71341082299995],[-74.16086271299991,-42.71248603399994],[-74.16143253999991,-42.71364290699995],[-74.15966356799993,-42.71464305599994],[-74.15925659099992,-42.71341082299995]]],[[[-73.74379960499994,-42.57531781599994],[-73.75377008499993,-42.571099526999944],[-73.74891984299995,-42.575797105999925],[-73.74379960499994,-42.57531781599994]]],[[[-74.19667355199994,-42.51418227399995],[-74.1979780769999,-42.513133231999916],[-74.19857282399994,-42.514578317999906],[-74.19667355199994,-42.51418227399995]]],[[[-74.10249796099993,-42.485619510999925],[-74.10434060599994,-42.48806999599992],[-74.11517879099995,-42.49069382199991],[-74.12281257199993,-42.494426871999906],[-74.12414857199991,-42.50126347799994],[-74.12872396699993,-42.50756187499991],[-74.13317251699993,-42.50746952999992],[-74.13999704699995,-42.50486424299993],[-74.14635277499991,-42.49871127799992],[-74.14701418399994,-42.499855434999915],[-74.15567490199993,-42.50245470099992],[-74.16243500399992,-42.50319775299994],[-74.17329613499993,-42.50301995199993],[-74.1775449729999,-42.50095667699992],[-74.17915355699995,-42.50231007299993],[-74.17800108199992,-42.50272058199994],[-74.18184192699994,-42.505274190999955],[-74.18203278099992,-42.50757979899993],[-74.18576882499991,-42.50748414299994],[-74.1843150389999,-42.50919132699994],[-74.18564031799991,-42.512294237999924],[-74.19526010599992,-42.5143479699999],[-74.19523220199994,-42.516522668999926],[-74.1933354599999,-42.517346869999926],[-74.19206701099995,-42.52007118699993],[-74.18984071599994,-42.52059581399993],[-74.18836007099992,-42.519238973999904],[-74.18261049999995,-42.52271035599995],[-74.17943104799991,-42.52168799399993],[-74.17802973599993,-42.52242092599994],[-74.17735477499991,-42.52509079399994],[-74.1741734169999,-42.52813887399992],[-74.17566784999991,-42.53249040499992],[-74.17305063799995,-42.53341264799991],[-74.17271303899992,-42.53615696299994],[-74.16875033999992,-42.53290639799991],[-74.16418545499994,-42.53312100099993],[-74.15722507499993,-42.537054017999935],[-74.15732198899991,-42.538712345999954],[-74.15376379499992,-42.542129228999954],[-74.14677281599995,-42.55623101999993],[-74.14376634699994,-42.56391606799991],[-74.14381603499993,-42.56668568899994],[-74.13535790399993,-42.58740275699995],[-74.13216518399992,-42.60318801999995],[-74.13077192599991,-42.60245700799993],[-74.13003505899991,-42.61029531399993],[-74.12928936199995,-42.61076694499991],[-74.1290653559999,-42.60961702599991],[-74.1286671229999,-42.61304063499995],[-74.12690324099992,-42.61499042999992],[-74.12344087499991,-42.639571763999925],[-74.12116275299991,-42.66011398999996],[-74.12357949499994,-42.667057761999956],[-74.12197569699993,-42.668837579999945],[-74.12233064499992,-42.67190668099994],[-74.12371396599991,-42.67268724399992],[-74.12276501299993,-42.6852741859999],[-74.12452225999994,-42.69492350899992],[-74.12767633199991,-42.7027913469999],[-74.13115913299993,-42.70629843499995],[-74.14118115499991,-42.709661017999906],[-74.14598582799994,-42.70980500999991],[-74.15023061399995,-42.70830565299991],[-74.15448081499994,-42.70903503199992],[-74.15731434399993,-42.7122663639999],[-74.15693566499993,-42.715996340999936],[-74.15886079499995,-42.71756843999992],[-74.1531337099999,-42.717908967999904],[-74.15212032999995,-42.72013031999995],[-74.14534785599994,-42.72592901999991],[-74.14266185399993,-42.74402336199995],[-74.14348621499994,-42.747654208999904],[-74.1476272729999,-42.751188208999906],[-74.14300471799993,-42.753391550999936],[-74.1436652619999,-42.758556583999905],[-74.15016647599992,-42.76746180999993],[-74.1551249339999,-42.76696267999995],[-74.15809779699993,-42.76833538099993],[-74.15955989899993,-42.765626495999925],[-74.16061850199992,-42.765467659999956],[-74.16110736899992,-42.766997654999955],[-74.1642138279999,-42.76503468199991],[-74.1634032469999,-42.76663172199994],[-74.16772780999992,-42.7659382999999],[-74.16933051399991,-42.76884966999995],[-74.16867535699993,-42.771226837999905],[-74.16661506899993,-42.76916764199996],[-74.16414942099993,-42.769825074999915],[-74.16759899099992,-42.773618950999946],[-74.16618013399994,-42.775963533999914],[-74.16705257299992,-42.77893264799991],[-74.1642148379999,-42.77853824899995],[-74.16323365699992,-42.78110211399991],[-74.16591173299992,-42.78269758999994],[-74.16753302699993,-42.78618545499995],[-74.16514233499993,-42.78781152699992],[-74.16382829199995,-42.787049992999926],[-74.16199619199995,-42.78883766999991],[-74.15705177199993,-42.78868430999995],[-74.15547559299995,-42.792090223999935],[-74.15267066399991,-42.793397789999915],[-74.15283044799992,-42.811711300999946],[-74.15737507299991,-42.81554507499993],[-74.16054747899994,-42.81398344299993],[-74.16038816799994,-42.81553118799991],[-74.16183388299993,-42.81552827199994],[-74.15926522699993,-42.819021509999914],[-74.16576998699992,-42.821239362999904],[-74.16249427999992,-42.823525307999944],[-74.16620659799992,-42.82536496799992],[-74.16703896599995,-42.82768911399995],[-74.16576632999994,-42.826629004999916],[-74.16493214699994,-42.82776209299993],[-74.16184491899992,-42.82770287199992],[-74.16154183299994,-42.82984905899991],[-74.16389367999994,-42.83110763399992],[-74.1632822599999,-42.83545406799993],[-74.15679275199994,-42.83648006899995],[-74.15256615299995,-42.83886198599993],[-74.15126913499995,-42.84153214899993],[-74.15163187499991,-42.849467741999945],[-74.15022901599991,-42.85005527299995],[-74.14608246999995,-42.84778748699995],[-74.14328785599992,-42.85012807299995],[-74.14067035999994,-42.84770369899991],[-74.13625241999995,-42.850874320999935],[-74.13009598299993,-42.85209771099994],[-74.12745885099991,-42.851327187999914],[-74.12473780499994,-42.85302449499994],[-74.12470310799995,-42.854334681999944],[-74.1220143239999,-42.854397485999925],[-74.1214326729999,-42.85316596399991],[-74.11662790299994,-42.85173514799993],[-74.11594288799995,-42.85321901099991],[-74.10408388799993,-42.854605575999926],[-74.10227694999992,-42.85274470899992],[-74.09569167299992,-42.85199318399992],[-74.09086309299994,-42.852877952999904],[-74.08957187499993,-42.85124498099992],[-74.08263338599994,-42.85324476499994],[-74.07781728099991,-42.85333924799994],[-74.07440288299995,-42.851686971999925],[-74.06661077599995,-42.85203677499993],[-74.0650978189999,-42.85116698999991],[-74.0657586239999,-42.84782428299991],[-74.06003253299991,-42.846695405999924],[-74.04546802699991,-42.85096646499994],[-74.04010466599993,-42.849160173999906],[-74.03686578499992,-42.8546894129999],[-74.03460463399995,-42.85489949999993],[-74.02915613599993,-42.86101132899995],[-74.01986433899992,-42.85946932999991],[-74.01180731799991,-42.86081492999995],[-74.0102239229999,-42.81994187899994],[-74.01025315699991,-42.82309397499995],[-74.00651396299992,-42.82630329099993],[-74.00673363599992,-42.827443574999904],[-74.00473800899994,-42.82824354199994],[-74.00273083299993,-42.82729202399992],[-73.99717796199991,-42.832264058999954],[-73.98586253199994,-42.83546276299995],[-73.97698055799992,-42.83388650899991],[-73.97268648399995,-42.83813810399994],[-73.96528635499993,-42.83478475299995],[-73.94743312299994,-42.82970457399995],[-73.93749499699993,-42.83107229299992],[-73.92904398099995,-42.82933195399994],[-73.92262889799991,-42.82983311899994],[-73.9144234179999,-42.8330598199999],[-73.8875362359999,-42.836143714999935],[-73.88135190199995,-42.84126908799993],[-73.87614616799993,-42.84306288399995],[-73.87515883799995,-42.85386001899991],[-73.86770545799993,-42.853573845999904],[-73.8619997479999,-42.855744074999905],[-73.8453500629999,-42.86618095099993],[-73.8099971929999,-42.87662994599992],[-73.80483427699994,-42.87885514099992],[-73.80137957999995,-42.88192146199992],[-73.79602833799993,-42.88195989299993],[-73.79427537799995,-42.88347374499995],[-73.7878639779999,-42.88378438199993],[-73.78036126699993,-42.88154695499992],[-73.77949399699992,-42.88017858599994],[-73.77205175499995,-42.88119506499993],[-73.77056148299994,-42.87668518699991],[-73.77445637299991,-42.874162148999915],[-73.76139075399993,-42.86876039099991],[-73.75600296599993,-42.85953881599994],[-73.7418580019999,-42.853360480999925],[-73.73697337699991,-42.85404879399994],[-73.73576326799991,-42.852882776999934],[-73.73874242099993,-42.850682358999904],[-73.74803387299994,-42.85125711799992],[-73.75238542199992,-42.84948258199995],[-73.75084502199991,-42.84700587099991],[-73.74700208899992,-42.84644607699994],[-73.7432398059999,-42.84817435299993],[-73.74029477099992,-42.847016338999936],[-73.74328832799995,-42.84385690799991],[-73.74211722899992,-42.84333525399995],[-73.74250105999994,-42.84119173699992],[-73.73999379599991,-42.84023487199994],[-73.74522673299992,-42.838536853999926],[-73.7500863329999,-42.82914883899991],[-73.73844209399994,-42.82797663899993],[-73.73817805999994,-42.82580930899991],[-73.7339196719999,-42.82474664499995],[-73.72888024199995,-42.82094867299992],[-73.72623183199994,-42.81652136699995],[-73.72609329999995,-42.81348272899993],[-73.72075329599994,-42.812313858999914],[-73.71546086099994,-42.80712556799995],[-73.7163948779999,-42.764539569999954],[-73.70705146199992,-42.76783114099993],[-73.69261702699993,-42.766189381999936],[-73.6822388029999,-42.7678984339999],[-73.67673563999995,-42.767546334999906],[-73.66811305199991,-42.760689749999926],[-73.65692670099992,-42.76165985599994],[-73.65526399399994,-42.76073306899991],[-73.65475758499991,-42.75758190899995],[-73.65313496699991,-42.756942919999915],[-73.6442581579999,-42.75838412599995],[-73.64040626699995,-42.75577996399994],[-73.63435225699993,-42.75737942699993],[-73.62706906699992,-42.75259851699991],[-73.6234481429999,-42.74729693599994],[-73.61327409799992,-42.745382804999906],[-73.62011814999994,-42.73750077699992],[-73.62659714999995,-42.73239611699995],[-73.63120865899992,-42.725238077999904],[-73.6317660009999,-42.720962708999934],[-73.62971113599991,-42.70389554399992],[-73.6314450239999,-42.70152985999994],[-73.64741533699993,-42.69996805099993],[-73.65129582999992,-42.70552509299995],[-73.65878299399992,-42.70647539499993],[-73.66455198199992,-42.70454576599991],[-73.67328985299991,-42.696767629999954],[-73.6817134179999,-42.69364548099992],[-73.6825132109999,-42.68876476199995],[-73.67180586599994,-42.682476900999916],[-73.6754157869999,-42.67820061999993],[-73.6713939949999,-42.67176920499992],[-73.66884163199995,-42.67146040099993],[-73.66657463099995,-42.67275332299994],[-73.66200284799993,-42.67886420099995],[-73.6598816849999,-42.678605260999916],[-73.65593092299991,-42.67507387699993],[-73.65976825899992,-42.664645555999925],[-73.66296770899993,-42.66460190099991],[-73.66954021399994,-42.66804745499991],[-73.6909537439999,-42.66593828799995],[-73.69843494899993,-42.667203257999915],[-73.70535920899994,-42.66444952899991],[-73.72912832899993,-42.652135124999916],[-73.73823310599994,-42.64945723999995],[-73.74381548899993,-42.64359742699992],[-73.75189925199993,-42.64187017599994],[-73.75310042199993,-42.640560904999916],[-73.75223558499994,-42.6382505869999],[-73.75303391699993,-42.63656174699992],[-73.7602987809999,-42.631714719999934],[-73.76232396199993,-42.628968141999906],[-73.76049786699991,-42.62489859999994],[-73.7702289739999,-42.62086816099992],[-73.77000110299991,-42.61700677199991],[-73.77133722899993,-42.614876557999935],[-73.77553229599994,-42.61328812499994],[-73.78351743199994,-42.61505764599991],[-73.7880431769999,-42.611416128999906],[-73.78811408699994,-42.60724404299992],[-73.78544675899991,-42.602019785999914],[-73.78838082599992,-42.59616548099996],[-73.78468723599991,-42.59482436999991],[-73.78397234999994,-42.590513005999924],[-73.77745176499991,-42.5835956489999],[-73.77325321099994,-42.58316090099993],[-73.76751326699991,-42.57999580399991],[-73.75665051899995,-42.57840873999993],[-73.7601320899999,-42.57266677699994],[-73.75519366399993,-42.56281184799991],[-73.75141231299995,-42.559578217999956],[-73.75032258599992,-42.55272207799993],[-73.75556795099993,-42.546430209999926],[-73.7601528749999,-42.54395834199994],[-73.76351219199995,-42.54456199799995],[-73.76689714499992,-42.542590221999944],[-73.78538406099995,-42.54563941799995],[-73.79839665999992,-42.54409678799993],[-73.80056188099991,-42.545620604999954],[-73.8011664839999,-42.54172637599993],[-73.80504410299994,-42.538615697999944],[-73.80356450599993,-42.53679532499996],[-73.8030089259999,-42.53247930099991],[-73.79997824599991,-42.530620625999916],[-73.79735403699993,-42.524227226999926],[-73.79933545199992,-42.522879143999944],[-73.80448751299991,-42.522964533999925],[-73.80710357799995,-42.520123490999936],[-73.8147490209999,-42.523017102999916],[-73.81800757899993,-42.521830492999925],[-73.8239126549999,-42.516938128999925],[-73.83083007599993,-42.51470346199994],[-73.83532725599991,-42.50888655099993],[-73.84212796199995,-42.50721736899993],[-73.84533242799995,-42.50133295199993],[-73.85697651899994,-42.499414395999906],[-73.8633020119999,-42.49344798099992],[-73.86549609199994,-42.487733068999944],[-73.86810554599992,-42.48637198799992],[-74.01978412299991,-42.48781326499994],[-74.01796396899994,-42.49456577199993],[-74.01980420599995,-42.49990066599992],[-74.02197173499991,-42.499968715999955],[-74.04017485499992,-42.49473717199993],[-74.05998737599992,-42.49411789399994],[-74.07653732499995,-42.49583296499992],[-74.10249796099993,-42.485619510999925]]]]}},{"type":"Feature","properties":{"cut":10208,"comuna":"QUELLÓN"},"geometry":{"type":"MultiPolygon","coordinates":[[[[-73.45667886199993,-43.03972219399992],[-73.4383804979999,-43.0541953309999],[-73.43467958799994,-43.06344803999991],[-73.44067311499992,-43.06384755499994],[-73.44344854099995,-43.05689653999991],[-73.44927966799992,-43.051439126999924],[-73.4535180869999,-43.05022579799993],[-73.45855431599995,-43.046799344999954],[-73.46419452299995,-43.04642137099995],[-73.47143151999995,-43.043186688999924],[-73.45667886199993,-43.03972219399992]]],[[[-74.00553289699991,-42.82813369199994],[-74.00273083299993,-42.82729202399992],[-73.99717796199991,-42.832264058999954],[-73.98689642799991,-42.835296780999954],[-73.97698055799992,-42.83388650899991],[-73.97268648399995,-42.83813810399994],[-73.96528635499993,-42.83478475299995],[-73.94743312299994,-42.82970457399995],[-73.93749499699993,-42.83107229299992],[-73.92904398099995,-42.82933195399994],[-73.92262889799991,-42.82983311899994],[-73.9144234179999,-42.8330598199999],[-73.8875362359999,-42.836143714999935],[-73.88135190199995,-42.84126908799993],[-73.87614616799993,-42.84306288399995],[-73.87515883799995,-42.85386001899991],[-73.86770545799993,-42.853573845999904],[-73.85947897199992,-42.85705487599995],[-73.8453500629999,-42.86618095099993],[-73.8099971929999,-42.87662994599992],[-73.80483427699994,-42.87885514099992],[-73.80137957999995,-42.88192146199992],[-73.79602833799993,-42.88195989299993],[-73.79427537799995,-42.88347374499995],[-73.7878639779999,-42.88378438199993],[-73.78036126699993,-42.88154695499992],[-73.77949399699992,-42.88017858599994],[-73.77205175499995,-42.88119506499993],[-73.77056148299994,-42.87668518699991],[-73.77445637299991,-42.874162148999915],[-73.76139075399993,-42.86876039099991],[-73.75983010599992,-42.86484148299991],[-73.75397382599994,-42.85820146299994],[-73.74099086299992,-42.85320636299991],[-73.7367092739999,-42.85460503899992],[-73.73898963699992,-42.85660872999995],[-73.73767119599995,-42.85803077299994],[-73.7282369269999,-42.86353711899994],[-73.72285078599992,-42.86475109699995],[-73.7206283509999,-42.86709797799995],[-73.70972799399993,-42.86942864799994],[-73.70035960699994,-42.869837667999946],[-73.69943786399995,-42.87161613399991],[-73.69604113699995,-42.87279721999994],[-73.69138301099991,-42.87175473099995],[-73.68313124999992,-42.872486806999916],[-73.6761401839999,-42.87629574199991],[-73.66531676799991,-42.87917871399992],[-73.6573118309999,-42.88461451699993],[-73.65722766199991,-42.88679547999993],[-73.65339109199994,-42.89032826399995],[-73.65315640299991,-42.89433703199995],[-73.65038459999994,-42.89465674999991],[-73.65173667999994,-42.8968952859999],[-73.63717127599995,-42.90374296099992],[-73.6388427839999,-42.90820804799995],[-73.6370665529999,-42.91100581499995],[-73.63166514499994,-42.91014177799991],[-73.62700502699994,-42.911603843999956],[-73.61684514199993,-42.91659077699995],[-73.61484576899994,-42.92023929699991],[-73.61555480299995,-42.923161637999954],[-73.62108212399994,-42.922654594999926],[-73.61663051099993,-42.926183271999946],[-73.61637146999993,-42.9303407189999],[-73.6144281359999,-42.93393568999994],[-73.61729805899995,-42.941681682999956],[-73.62079011599991,-42.94225235899995],[-73.62996977099994,-42.94005871199994],[-73.6329861449999,-42.94128738499995],[-73.63665167999994,-42.939853901999925],[-73.64046179899992,-42.94022447999993],[-73.6393302699999,-42.941349430999935],[-73.64059348399991,-42.94178456499992],[-73.6452746679999,-42.94197559299994],[-73.63914596699993,-42.94385442399994],[-73.6329921489999,-42.942683348999935],[-73.62306426099991,-42.946155709999914],[-73.62191445799994,-42.94477308499995],[-73.60996772699991,-42.94199946099991],[-73.6075497029999,-42.94370476599994],[-73.60925792099994,-42.944850379999934],[-73.60670261399991,-42.94609321999991],[-73.60765746999994,-42.947107711999934],[-73.60625071499993,-42.94813411899992],[-73.60649414499994,-42.95042742399994],[-73.59301800399993,-42.95241736599991],[-73.59097366899994,-42.95549569299993],[-73.59337395999995,-42.95946893699994],[-73.60008970799993,-42.95949707099993],[-73.60277257199994,-42.96161690899993],[-73.60330959999993,-42.96479469999991],[-73.6064753359999,-42.96515854599994],[-73.60047599899991,-42.96606110199991],[-73.60425769999995,-42.966933974999904],[-73.60665918199993,-42.97009381399994],[-73.60516273499991,-42.97105541399992],[-73.60309170799991,-42.96952185299995],[-73.59679052399991,-42.96882370299994],[-73.5938139889999,-42.96992789899991],[-73.58724158899992,-42.96977090599995],[-73.57566293299993,-42.973000758999945],[-73.5556656469999,-42.97200054399991],[-73.54759437399991,-42.97216437499992],[-73.5449448679999,-42.97350898399992],[-73.54473393799992,-42.97966012699993],[-73.54891231199991,-42.98543176499993],[-73.54966975999992,-42.989636600999916],[-73.5477906669999,-42.993203500999925],[-73.5429869109999,-42.997156316999906],[-73.54322467399993,-43.003692661999935],[-73.53776466699992,-43.006991625999945],[-73.53948267899995,-43.01591203299995],[-73.53795519699992,-43.02931833899993],[-73.53452834799992,-43.03412295699991],[-73.52562075899993,-43.040584312999954],[-73.52313096199993,-43.04485266699993],[-73.51285888399991,-43.05120009199993],[-73.5108444789999,-43.05724932499993],[-73.51105177999995,-43.06076624199994],[-73.50801835699991,-43.06526542599994],[-73.50999329399991,-43.07025871099995],[-73.5140515249999,-43.07311094599993],[-73.51220662299994,-43.06944171999993],[-73.51783364799991,-43.067882727999915],[-73.51842273599993,-43.0656865279999],[-73.52067011399993,-43.06614446099991],[-73.51927535499993,-43.067389153999954],[-73.52503784999993,-43.067618447999905],[-73.5292697349999,-43.061192468999934],[-73.54035914199994,-43.06284737699991],[-73.54540010199992,-43.06197047799992],[-73.54704339199992,-43.05842948499992],[-73.5532361409999,-43.05069327099994],[-73.55732056199992,-43.04830275099994],[-73.56322417199993,-43.039633145999915],[-73.57213653199994,-43.0334905549999],[-73.57875437899992,-43.03522880599991],[-73.58396511899991,-43.03461438599993],[-73.5914726069999,-43.037947293999935],[-73.5930153409999,-43.039371968999944],[-73.59283863499991,-43.04141877699993],[-73.59523959499995,-43.04296118599996],[-73.60918857599995,-43.03947439299992],[-73.60838232399993,-43.04065585799992],[-73.60957819099991,-43.04307675599995],[-73.61928562199995,-43.042574842999954],[-73.6131185509999,-43.045252089999906],[-73.61268979499994,-43.04625946899995],[-73.61676694099992,-43.04769069799994],[-73.6167114459999,-43.048714515999905],[-73.61206383299992,-43.050969291999934],[-73.61223788099994,-43.05261534999994],[-73.61478881599993,-43.054576959999906],[-73.61922868099992,-43.05524923199994],[-73.61412347699991,-43.056164347999925],[-73.60841474499995,-43.054308163999906],[-73.60118335499993,-43.05585202099991],[-73.59436591299993,-43.05134888199996],[-73.57781779399994,-43.051168222999934],[-73.57228670399991,-43.053624821999904],[-73.57028944799993,-43.056387438999934],[-73.5628288609999,-43.060737382999946],[-73.56246757899993,-43.06229339799995],[-73.55138298199995,-43.067311755999924],[-73.53832478099991,-43.067098030999944],[-73.53246381899993,-43.06486682599996],[-73.53094114899994,-43.0673965819999],[-73.53170361299993,-43.07084910899994],[-73.53003027099993,-43.07287658699994],[-73.51703141199994,-43.07285179399992],[-73.51571995299992,-43.07534834099994],[-73.5078350359999,-43.08085659799991],[-73.49365176599991,-43.08616406199991],[-73.49302958599992,-43.08811550899992],[-73.48446479299992,-43.09409902699991],[-73.48087309099992,-43.099973847999934],[-73.47866753799991,-43.10984431899993],[-73.4772753549999,-43.131628477999925],[-73.47916384199993,-43.144993550999914],[-73.48034572099994,-43.14609793499994],[-73.48525307499995,-43.14485660699995],[-73.49023591899993,-43.14537246499992],[-73.4929440599999,-43.1440727289999],[-73.50343982999993,-43.13491395999995],[-73.51168577499993,-43.131051957999944],[-73.51934108199993,-43.12980131599994],[-73.52407302199993,-43.12493919299993],[-73.53363990399993,-43.12476440599994],[-73.5361434429999,-43.11730350999994],[-73.53968191099995,-43.11415617999995],[-73.53803596799992,-43.11294390699993],[-73.53799334899992,-43.10995332199991],[-73.54148697199992,-43.100455979999936],[-73.54326251599991,-43.10099084099994],[-73.5417144889999,-43.1018288219999],[-73.54109895499994,-43.106526422999934],[-73.54097095299994,-43.111230235999926],[-73.5423329109999,-43.114594834999934],[-73.54153792099993,-43.11657409299994],[-73.53955242699993,-43.11664406299991],[-73.54096958499991,-43.11996190799994],[-73.54355290899991,-43.12211524999992],[-73.54289088399992,-43.12328615599995],[-73.54887086299993,-43.11866864099994],[-73.5541321149999,-43.11898541799991],[-73.55687469899993,-43.1178407079999],[-73.56444033699995,-43.112098759999924],[-73.56700861099995,-43.114918487999944],[-73.56634336699994,-43.11555342899993],[-73.57201559299995,-43.117768622999904],[-73.57141326999994,-43.11989344199992],[-73.57219302899995,-43.117830399999946],[-73.57406689499993,-43.11836600899994],[-73.57344118299994,-43.12080027299993],[-73.57609594299993,-43.11852231799992],[-73.58259098699995,-43.11963936099994],[-73.5865903909999,-43.11808114999991],[-73.59077956099992,-43.12035132299991],[-73.62211114099995,-43.121112515999926],[-73.62547150299991,-43.120390958999906],[-73.62764846599993,-43.11801129999992],[-73.63070948299992,-43.11854305799994],[-73.63239193699991,-43.1170846949999],[-73.63369560799993,-43.120034192999924],[-73.63552234299993,-43.11932246899994],[-73.63349286199991,-43.118716269999936],[-73.63499347699991,-43.11869456399995],[-73.6405114559999,-43.12110194699994],[-73.64120019699993,-43.122652098999936],[-73.63951446899995,-43.126014434999945],[-73.63644938399995,-43.12874890199993],[-73.62527263999993,-43.13185280499994],[-73.62196749999993,-43.135277027999905],[-73.61574110499993,-43.13858571499992],[-73.62496548299993,-43.14416266799992],[-73.62952445999991,-43.144717698999955],[-73.64601001799991,-43.13856464499992],[-73.66081013799993,-43.13794071499996],[-73.68202933099991,-43.14440546399993],[-73.68449853499993,-43.14608972099995],[-73.6835370949999,-43.14843733399994],[-73.68440546399995,-43.148911910999914],[-73.6990425159999,-43.15147370999995],[-73.71374791099993,-43.147732694999945],[-73.7149881819999,-43.14522118199994],[-73.71540756099995,-43.134516539999936],[-73.70816397999994,-43.12395194499993],[-73.70867244499993,-43.1183349609999],[-73.70773208399993,-43.11665658499993],[-73.7110385069999,-43.11329880299991],[-73.70996086899993,-43.10964140999994],[-73.71649063899991,-43.10605768799991],[-73.71471032799991,-43.10489409399992],[-73.71584985499993,-43.10482350099994],[-73.7152113379999,-43.103482123999925],[-73.71700620999991,-43.103168711999956],[-73.71625191999993,-43.10192134199991],[-73.7178474769999,-43.10180819499993],[-73.71797392799994,-43.09730664999995],[-73.71885214799994,-43.09806698099993],[-73.72014574199994,-43.09449576499992],[-73.71911472599993,-43.09326914099995],[-73.72185347099992,-43.09366905899992],[-73.7226617469999,-43.09232004799992],[-73.72397410399992,-43.09252529299994],[-73.72396537799995,-43.09372836999995],[-73.73212274499991,-43.093854792999934],[-73.7255810069999,-43.095771520999904],[-73.72846492799994,-43.09701869299994],[-73.7277424589999,-43.10443220999991],[-73.72614744999993,-43.106868455999916],[-73.72751182399992,-43.10771751899995],[-73.72611395599995,-43.114754208999955],[-73.73535341099995,-43.11695332399995],[-73.73674458799991,-43.11414541399995],[-73.73814863699994,-43.114661235999904],[-73.73684622099995,-43.11552839399991],[-73.7383738609999,-43.11715344699991],[-73.74578552999992,-43.118116466999936],[-73.74112594699994,-43.1193399359999],[-73.74257038899992,-43.12027308799992],[-73.74047569899994,-43.125670260999925],[-73.7482412519999,-43.12926969199992],[-73.75145864799993,-43.128688534999924],[-73.7529456979999,-43.13089331999993],[-73.75404602799995,-43.13072523699992],[-73.7509505669999,-43.13506861299993],[-73.7544899589999,-43.137739017999934],[-73.75479010899994,-43.142521107999926],[-73.75701419799992,-43.145122269999945],[-73.75617180899991,-43.14527876599993],[-73.75693239899994,-43.14881920199991],[-73.7528141759999,-43.15225114099991],[-73.75079135899995,-43.158626211999945],[-73.74478566999994,-43.16385955499993],[-73.74490826599992,-43.16494796899991],[-73.74681432699992,-43.16535724899995],[-73.74188331699992,-43.167619155999944],[-73.73915421299995,-43.17086356999994],[-73.74074479199993,-43.18600721799993],[-73.74261653499991,-43.186611108999955],[-73.7440830349999,-43.19004528599993],[-73.74383495199993,-43.19389589399992],[-73.74943955899994,-43.196272836999924],[-73.74905698999993,-43.19844277899995],[-73.75201874299995,-43.20500618299991],[-73.74195135899993,-43.21081635899992],[-73.74286050599994,-43.212541736999924],[-73.74060070199994,-43.21472066899992],[-73.7429801099999,-43.21940457799991],[-73.74443912799995,-43.219742235999945],[-73.74320127399994,-43.22132489899991],[-73.7361005219999,-43.22205669999994],[-73.73472325299991,-43.22406657399995],[-73.72937499799991,-43.225889440999936],[-73.72343229299992,-43.230421435999915],[-73.72481751299995,-43.23196166699995],[-73.72359108299992,-43.23296053599995],[-73.7256113059999,-43.23295923799992],[-73.72219213499994,-43.23519634699994],[-73.7240323019999,-43.23836174399992],[-73.72232834599993,-43.23959351599996],[-73.72196506099993,-43.24216251799993],[-73.71552174699991,-43.24094675899994],[-73.71615634699992,-43.241763920999915],[-73.70444364399992,-43.24624191599992],[-73.69513234899995,-43.24807777299992],[-73.69223961099993,-43.25456075499994],[-73.6856670809999,-43.25704655699991],[-73.67506241299992,-43.26656122199995],[-73.67639697899995,-43.26884940299993],[-73.67551629899992,-43.273377773999925],[-73.67758905699992,-43.27327072399993],[-73.68050967499994,-43.276175304999924],[-73.67745297499994,-43.27729548599996],[-73.67821756799992,-43.27812626899993],[-73.6751501519999,-43.280485134999935],[-73.67602291599991,-43.28159116699993],[-73.67430103999993,-43.28421136499992],[-73.66612106199995,-43.29082970799993],[-73.66487615099993,-43.29325467099994],[-73.66482455599993,-43.295612682999945],[-73.66848673699991,-43.29968169999995],[-73.66720337099991,-43.30094135399992],[-73.66747477699994,-43.30419654199994],[-73.66364177899993,-43.30791606299994],[-73.66464519699991,-43.31051272399992],[-73.66178087999992,-43.31541087599993],[-73.66150480199991,-43.31832612099993],[-73.67162671499995,-43.322506183999906],[-73.67657357899992,-43.32311149699996],[-73.6832107699999,-43.32175865599993],[-73.69175718699995,-43.32341723399992],[-73.69120758499992,-43.32469745699996],[-73.69255231799991,-43.32514167599993],[-73.7098629649999,-43.31748816499993],[-73.7167691059999,-43.31646994599993],[-73.72303039499991,-43.31740961899993],[-73.72804108799994,-43.31652439699991],[-73.7371965719999,-43.319520515999955],[-73.74644887199992,-43.31864550899991],[-73.75148492799991,-43.31730687499993],[-73.75428037799992,-43.31463329399992],[-73.76830764499994,-43.309913141999914],[-73.77111084299992,-43.31165865299994],[-73.7804719799999,-43.31341465299994],[-73.78421581899994,-43.31219182199993],[-73.78268085999991,-43.31390276199994],[-73.78467242099993,-43.31301861599991],[-73.79585678199993,-43.31335134199992],[-73.79659769099993,-43.3121798329999],[-73.80605923799993,-43.310619163999945],[-73.80808016899994,-43.30904400899993],[-73.80827839699992,-43.30724732999994],[-73.81115042599993,-43.3055142149999],[-73.80846607599995,-43.30348502699991],[-73.80867569399993,-43.30193862199991],[-73.82363342699995,-43.29680442199992],[-73.82460256199994,-43.29559933799993],[-73.82327837999992,-43.294072866999954],[-73.8261577259999,-43.29444791099991],[-73.8286365749999,-43.291900280999926],[-73.83490234399994,-43.29085644299994],[-73.84230315799994,-43.28670274499996],[-73.84269321599993,-43.285050887999944],[-73.8503448159999,-43.284830249999914],[-73.85366281599994,-43.28267169599991],[-73.85775778099992,-43.28254589399995],[-73.8707534859999,-43.28692762299994],[-73.87087179399992,-43.28846547299992],[-73.86719874699992,-43.28956081699994],[-73.86350337899995,-43.28834484299995],[-73.86009759299992,-43.28996675399992],[-73.85699658099992,-43.288696555999934],[-73.85311263799991,-43.29058745999993],[-73.85248621999995,-43.28921126799992],[-73.84496450199993,-43.29460327599992],[-73.84525184199993,-43.29665508399995],[-73.84192910099995,-43.29728857199996],[-73.84099788399993,-43.29908979999993],[-73.84415473599995,-43.29860951999996],[-73.84409233899993,-43.30018130499991],[-73.83939801999992,-43.30174191499992],[-73.83490407099993,-43.301338855999916],[-73.82979192699992,-43.30340703999991],[-73.83067860099993,-43.30224871099995],[-73.82949434099993,-43.30191496599991],[-73.82002949699995,-43.310597008999935],[-73.81567696899992,-43.31044480999992],[-73.81323383799992,-43.31276618699991],[-73.81165310299991,-43.31184444599995],[-73.8098861169999,-43.312945818999935],[-73.80953992199994,-43.31396666499995],[-73.81136690399995,-43.31397375599994],[-73.81163286799995,-43.3153940709999],[-73.81011831899991,-43.32027423199992],[-73.81258422799993,-43.33104464199994],[-73.81100787799994,-43.33322010199993],[-73.81202135399991,-43.33396918799991],[-73.80723387899991,-43.336778272999936],[-73.8016660859999,-43.34355763499991],[-73.8005019169999,-43.35128831299994],[-73.79493214299993,-43.35311186999991],[-73.79657810799995,-43.36233726099994],[-73.79823000199991,-43.36384364499992],[-73.80102367599994,-43.36375384899992],[-73.80315225499993,-43.36676608099992],[-73.79982824699994,-43.36926869599995],[-73.80069113399992,-43.372445884999934],[-73.79840417399993,-43.37590654899992],[-73.79565275999994,-43.37536563799995],[-73.79241363099993,-43.37658661899991],[-73.79174736599992,-43.37821456799992],[-73.7933857459999,-43.378942012999914],[-73.7936447539999,-43.383007437999936],[-73.79044221099991,-43.38692069199993],[-73.7923141089999,-43.38844334099991],[-73.79569862499994,-43.38791752599991],[-73.79349340699991,-43.38949623399992],[-73.79695557299993,-43.390771334999954],[-73.79962214799991,-43.394498712999905],[-73.7985241479999,-43.39734427099995],[-73.79313771199992,-43.40171355599995],[-73.79223753699995,-43.408260482999935],[-73.79553422299995,-43.41336533899994],[-73.79820687099993,-43.41339346099994],[-73.7999857289999,-43.41623619299992],[-73.80525075499992,-43.415779364999935],[-73.81477452699994,-43.41069279399994],[-73.81724741599993,-43.41050370499994],[-73.81346903399992,-43.40678172899993],[-73.81365454599995,-43.40424035199993],[-73.8182144669999,-43.40057445799994],[-73.82255676199992,-43.40090551199995],[-73.82664056399994,-43.40211454899992],[-73.82802358599992,-43.40615562799991],[-73.8291769999999,-43.40625001899991],[-73.82918069199991,-43.409586075999925],[-73.83115662099993,-43.41135892199992],[-73.82969417099991,-43.41224275099995],[-73.82917228799994,-43.415057738999906],[-73.8246506829999,-43.41583265599991],[-73.82544183999994,-43.41779332099992],[-73.82457937599992,-43.41841980699991],[-73.82590224599994,-43.419270198999925],[-73.82193186899991,-43.42229762899996],[-73.82796191199992,-43.42050004099991],[-73.83305064899992,-43.4234189039999],[-73.8319271439999,-43.42435270699991],[-73.83422940399993,-43.42625125399991],[-73.84143239699995,-43.427610656999946],[-73.84274211999991,-43.426942083999904],[-73.84115695699995,-43.426445643999955],[-73.84292516799991,-43.42626209899993],[-73.84893686499993,-43.42878668599991],[-73.85208322599993,-43.427687087999914],[-73.85230949899994,-43.424714069999936],[-73.85348974499993,-43.424137049999956],[-73.86484553399993,-43.4240024099999],[-73.86473136399991,-43.42101048799992],[-73.87342325199995,-43.4246296149999],[-73.87803510999993,-43.423574721999955],[-73.88296217499993,-43.420399725999914],[-73.88326063399995,-43.4168849749999],[-73.88071966899992,-43.415186527999936],[-73.88503042899993,-43.41195891499996],[-73.8844389969999,-43.40828051099993],[-73.88827361999995,-43.40664424999994],[-73.8922558079999,-43.407395728999916],[-73.88908677799992,-43.40285554399992],[-73.89224532799994,-43.398640178999926],[-73.90348503799993,-43.39524632599995],[-73.90727174799991,-43.39501913599992],[-73.90973042399992,-43.39656125099992],[-73.91269112399993,-43.39499331299993],[-73.91335469299992,-43.39591390699991],[-73.9170818099999,-43.3918737109999],[-73.91613128099993,-43.390361553999924],[-73.9184916989999,-43.38906670699993],[-73.9136827129999,-43.38706857599993],[-73.91279457099995,-43.38326351099994],[-73.91436429499993,-43.37745176399994],[-73.91638495299992,-43.37492951199994],[-73.91847446399993,-43.37449989599992],[-73.91928092599994,-43.372152058999916],[-73.92496244199992,-43.36976912499995],[-73.92751827899991,-43.37001361499995],[-73.92802658799991,-43.37130458699994],[-73.93171124899993,-43.370750201999954],[-73.93738158399992,-43.372042749999935],[-73.94431146199992,-43.368093346999956],[-73.9441012289999,-43.36674321299995],[-73.94661850299991,-43.36611557599991],[-73.97462390399994,-43.36550230799992],[-73.97715722599992,-43.36389786199993],[-73.97595678099992,-43.36202753899994],[-73.97684438099992,-43.361028209999915],[-73.98089779199995,-43.36121936799992],[-73.98314050899995,-43.36300593399994],[-73.97955107299993,-43.36672741499996],[-73.98005009299993,-43.3691023799999],[-73.98288205799992,-43.37062853099991],[-73.9837649829999,-43.376425669999946],[-73.98697603799991,-43.37678769899992],[-73.98667446099995,-43.37822639199993],[-73.99007212599992,-43.37620756599995],[-73.99262922299994,-43.378588717999946],[-73.99527366699994,-43.37865963099995],[-73.9946506309999,-43.38937938399994],[-73.9972887589999,-43.391709420999916],[-74.00143758599995,-43.39106213699995],[-74.00643059599992,-43.388561599999946],[-74.01048110099993,-43.382494606999956],[-74.00688068099993,-43.38191189199995],[-74.0055400089999,-43.37887586799991],[-74.00645191899991,-43.37530791499995],[-74.01197624499991,-43.37453741599995],[-74.01127233699992,-43.37132904999993],[-74.01435081799991,-43.369469834999904],[-74.0194884579999,-43.371470951999925],[-74.02468742199994,-43.366623028999925],[-74.0224120929999,-43.36101738699995],[-74.02068464199994,-43.36230131299993],[-74.01518627999991,-43.361542475999954],[-74.01672334699992,-43.361484539999935],[-74.01899377399991,-43.35828395899995],[-74.01943510399991,-43.35510324199993],[-74.02124865699994,-43.35300170499994],[-74.0202224219999,-43.351740294999956],[-74.02262294899992,-43.350664914999925],[-74.02668155999993,-43.352057516999935],[-74.04818295099994,-43.35291748299994],[-74.05578220399991,-43.351312772999904],[-74.05799840199995,-43.349448923999944],[-74.05847840799993,-43.34796385399994],[-74.05723074899993,-43.34736987899993],[-74.05922867999993,-43.342716751999944],[-74.06382910399992,-43.33754887099991],[-74.07785350599994,-43.331790086999945],[-74.07402427499994,-43.32712529199995],[-74.07234906899993,-43.32676626199992],[-74.07287222799994,-43.32562692999994],[-74.07664575799993,-43.32964805499995],[-74.08055021199993,-43.33151399299993],[-74.0923959289999,-43.33160861199991],[-74.09438827499991,-43.33040935799994],[-74.0946814909999,-43.32714772799994],[-74.08845123899994,-43.323679428999924],[-74.08651932799995,-43.32085272599994],[-74.08845654499993,-43.32114216399992],[-74.08814027499994,-43.32265249699992],[-74.09014739499992,-43.3237286719999],[-74.09356205299991,-43.323422242999925],[-74.09506182399991,-43.32570935699994],[-74.09617547499994,-43.32543226999991],[-74.09782021299992,-43.328959364999946],[-74.1010395589999,-43.32642358499993],[-74.09792455099995,-43.329627272999915],[-74.09994720199995,-43.329678944999955],[-74.09472391499992,-43.33308035299996],[-74.08816525899994,-43.33298060299995],[-74.08640150699995,-43.33415774899993],[-74.08994654399993,-43.33499604299993],[-74.09119602699991,-43.33656647899994],[-74.08901449599995,-43.33511965699995],[-74.07786047399992,-43.33672180199994],[-74.07381234299993,-43.342305876999944],[-74.07299347899993,-43.34455488999993],[-74.07411358899992,-43.34461071299995],[-74.0702527219999,-43.346811661999936],[-74.0711116569999,-43.348244490999946],[-74.06718239599991,-43.345477683999945],[-74.06274156599994,-43.351004521999926],[-74.04886074599995,-43.358919070999946],[-74.02987234299991,-43.35337174299991],[-74.02608323599992,-43.35295385799992],[-74.0253292559999,-43.35408797499991],[-74.0265358499999,-43.35621861799996],[-74.03326233199994,-43.359265628999935],[-74.06745172399991,-43.36438586899993],[-74.07074441499992,-43.36687848799994],[-74.0737329449999,-43.366843170999914],[-74.08174687799993,-43.37029084899996],[-74.08342889999994,-43.371364523999944],[-74.0845116559999,-43.37862768699995],[-74.0873012699999,-43.38209258899991],[-74.08590132099994,-43.38504752499995],[-74.0829228309999,-43.38652460399993],[-74.08279181099994,-43.38763137899991],[-74.08444863599993,-43.38715625999993],[-74.08406011199992,-43.38909482299994],[-74.0824533039999,-43.38949886499995],[-74.08336132199992,-43.39237256699994],[-74.0890194829999,-43.394596804999935],[-74.09627211599991,-43.393288137999946],[-74.09924933799994,-43.39402067499992],[-74.10195083399992,-43.39094632299992],[-74.10429648699994,-43.39269410499992],[-74.10737486599993,-43.39138654899995],[-74.10746136799992,-43.388723968999955],[-74.10917231399992,-43.38847790199992],[-74.11037312899992,-43.38419836999992],[-74.11364134099995,-43.38121461199995],[-74.1149201639999,-43.37805973499991],[-74.1187588279999,-43.37821043699995],[-74.12373825599991,-43.38146536399995],[-74.12638954899995,-43.37845921699994],[-74.12571746599991,-43.37738185899991],[-74.12277816499994,-43.37734205699991],[-74.12416500099994,-43.37487965799994],[-74.12223591199995,-43.375487447999944],[-74.12159288799995,-43.372404194999945],[-74.12619781799992,-43.368388085999925],[-74.13226462099993,-43.36775528699991],[-74.13987555499995,-43.364143834999936],[-74.14047773099992,-43.36312391699994],[-74.1391062539999,-43.36312551299994],[-74.13916079899991,-43.36157734099993],[-74.1371888889999,-43.36132423799995],[-74.1378799549999,-43.35979277899992],[-74.13536322699991,-43.35514994099992],[-74.1454071629999,-43.34903109499993],[-74.15799599799993,-43.34521726699995],[-74.17228821299994,-43.343248872999936],[-74.18968751999995,-43.344433659999936],[-74.19880374999991,-43.347499763999906],[-74.20527205399992,-43.34339944299995],[-74.21710797499992,-43.32921021499993],[-74.22401658799993,-43.32616010999993],[-74.2269491589999,-43.326513511999906],[-74.22794838099992,-43.32878359099993],[-74.22965662199994,-43.32918821299995],[-74.23821061299992,-43.32499283099992],[-74.24837270599994,-43.32525066099993],[-74.2524216409999,-43.327228085999934],[-74.26092630699992,-43.32560372899991],[-74.26493291999992,-43.328917334999915],[-74.26389090799995,-43.32737395099991],[-74.26895927599992,-43.32517886499994],[-74.27096202299992,-43.326895101999924],[-74.27104865199993,-43.32510881399992],[-74.2726645919999,-43.32505953999993],[-74.27337823499994,-43.32268162199995],[-74.27634357199992,-43.32303396599991],[-74.28438523999995,-43.32044003699991],[-74.28652129699992,-43.321942416999946],[-74.28805066099994,-43.320915579999905],[-74.29311601299992,-43.32167364599991],[-74.29399818199994,-43.32439509499994],[-74.29789164999994,-43.32493128999994],[-74.29949007499994,-43.32072414399994],[-74.3052301319999,-43.31955601499993],[-74.30471292599992,-43.31483560399994],[-74.31234434599992,-43.30501834899991],[-74.3269117559999,-43.29158450199992],[-74.33864401699992,-43.286423415999934],[-74.34584590999992,-43.28541654199995],[-74.35160235399991,-43.28691453899995],[-74.35991025499993,-43.29238145399995],[-74.36377364899994,-43.29253404399992],[-74.36739590499991,-43.290779193999924],[-74.36777696199994,-43.28705273299994],[-74.37014582099994,-43.28662504399995],[-74.37076375999993,-43.28362652799996],[-74.37388437399994,-43.281427950999955],[-74.37655482699995,-43.27698730599991],[-74.3908923969999,-43.26979799199995],[-74.40162309599992,-43.26772230799992],[-74.40533610799991,-43.26140426599994],[-74.4042729219999,-43.25509705999991],[-74.40011752299995,-43.25171603599995],[-74.39870312699992,-43.245392291999906],[-74.40136461299994,-43.23985504399991],[-74.4014329979999,-43.23619827299996],[-74.4051431769999,-43.2333228949999],[-74.3837756449999,-43.2276943089999],[-74.37516227799995,-43.222477564999906],[-74.37454775999993,-43.218852806999905],[-74.37692205299993,-43.21762686199992],[-74.37759364999994,-43.21565304099994],[-74.37650980099994,-43.21172792099992],[-74.37300641099995,-43.207134364999945],[-74.37401091499993,-43.202863264999905],[-74.36810781699995,-43.20050786799993],[-74.36767584899991,-43.196610078999925],[-74.36574143999991,-43.194729098999915],[-74.3664794899999,-43.19263657899995],[-74.36321647999995,-43.19015256299991],[-74.36314406799994,-43.187721996999926],[-74.3598845649999,-43.18494008999994],[-74.35900689399995,-43.17702522199994],[-74.36071255099995,-43.1742353059999],[-74.36024505199993,-43.17224328899994],[-74.35510276399992,-43.17370349299995],[-74.35266305099992,-43.17199812699994],[-74.35344110099993,-43.16921497799996],[-74.35231864799994,-43.16762425199994],[-74.35219838499995,-43.16052365299993],[-74.34983894499993,-43.15283853599993],[-74.34742665699991,-43.1517050139999],[-74.3476755879999,-43.14971702199995],[-74.3460289919999,-43.150029263999954],[-74.34292957899993,-43.1477481039999],[-74.3431524209999,-43.1466891579999],[-74.33954898999991,-43.14440501099995],[-74.3379602839999,-43.14086968299995],[-74.33585750899994,-43.141262525999934],[-74.33338605499995,-43.14414292899994],[-74.33340586499992,-43.146811477999904],[-74.33082691999994,-43.14758265899991],[-74.32754297999992,-43.14698564199995],[-74.32618015999992,-43.143677820999926],[-74.3237161959999,-43.142877047999946],[-74.3262995099999,-43.13873476999993],[-74.32409782899992,-43.139245941999945],[-74.32246284099995,-43.142941108999935],[-74.31752980699991,-43.14328108299992],[-74.3129915419999,-43.14177675399992],[-74.30976271499992,-43.13957730499993],[-74.30554529099993,-43.13276156599994],[-74.30624656899994,-43.12396234899995],[-74.31335422899991,-43.11663126199994],[-74.32126487399995,-43.117405134999956],[-74.32241918799991,-43.11890106399994],[-74.32632294099994,-43.118816900999946],[-74.33041443299993,-43.12090181399992],[-74.33403826499995,-43.119648302999906],[-74.33443795999995,-43.117280000999926],[-74.33340906599994,-43.116189953999935],[-74.33066150799993,-43.116138176999925],[-74.3282153959999,-43.11380086299994],[-74.32799669199994,-43.11001133499991],[-74.32457480199992,-43.10772776899995],[-74.31906064599991,-43.10794525499995],[-74.31757712099994,-43.10537518099994],[-74.3178500759999,-43.102756005999936],[-74.32128558199992,-43.10228801299991],[-74.32049616299992,-43.09869759299994],[-74.32148306099992,-43.09765512799993],[-74.32431642599994,-43.097219208999945],[-74.32693598299994,-43.099974578999934],[-74.32888524799995,-43.09862797499994],[-74.33507881199995,-43.098640306999926],[-74.33529228299994,-43.09543701699994],[-74.33424631899993,-43.09445408999994],[-74.33293886399991,-43.095101677999935],[-74.32462343599991,-43.08851279599992],[-74.32283824899991,-43.07878623799991],[-74.32471904499994,-43.0765774109999],[-74.32079030799991,-43.07346554599991],[-74.31597880599992,-43.07637106899995],[-74.31113464599991,-43.076274447999936],[-74.3101833959999,-43.07891334199991],[-74.3076285269999,-43.078955823999934],[-74.3078664059999,-43.08004792799994],[-74.30313325999992,-43.08407300199991],[-74.29781202999993,-43.08303667599995],[-74.29653713199991,-43.081677578999916],[-74.29772439499993,-43.08033360499991],[-74.29693327599995,-43.079276688999926],[-74.29386851899994,-43.08129436999991],[-74.29121388699991,-43.08084362299991],[-74.28983440799993,-43.07943554299993],[-74.29034784099991,-43.077160877999916],[-74.28884204699995,-43.07757621399992],[-74.28667668899993,-43.075825392999946],[-74.29291045199994,-43.07529461799993],[-74.29152600799995,-43.07318193799995],[-74.28958174299993,-43.072812762999945],[-74.2915022549999,-43.07067229199993],[-74.28947718099994,-43.069327770999905],[-74.28478680699993,-43.07077529599991],[-74.27886896699994,-43.06909732999992],[-74.28099673699995,-43.067267200999936],[-74.28011001499993,-43.06316920899991],[-74.27579676899995,-43.06279452399991],[-74.2718685719999,-43.061032248999936],[-74.27220672499993,-43.05915227299994],[-74.2699828499999,-43.059099499999945],[-74.27128058499994,-43.058441786999936],[-74.27028179299992,-43.05719997399996],[-74.27201391799991,-43.05653537099994],[-74.27181119099993,-43.05475812299994],[-74.26980536899993,-43.0551989839999],[-74.2687098319999,-43.054352268999935],[-74.26958783099991,-43.05356641599991],[-74.2666967689999,-43.05319080499993],[-74.26759436899994,-43.05186458499992],[-74.26623759099994,-43.04865144599995],[-74.2647267879999,-43.04842940599991],[-74.26422566499991,-43.04521208299991],[-74.25773583699993,-43.04320117399993],[-74.25766185399993,-43.03842296999994],[-74.25681838699995,-43.03962399299991],[-74.2553448939999,-43.03851408899993],[-74.25597937799995,-43.03718624499993],[-74.25447721499995,-43.03845052799994],[-74.25364059299994,-43.03691041199994],[-74.25243596599995,-43.03859164399995],[-74.24819300099995,-43.038004034999915],[-74.24714343699992,-43.0366748159999],[-74.24788341999994,-43.03318566599995],[-74.2455065389999,-43.03281289699993],[-74.24539259699992,-43.031374000999904],[-74.23859527999991,-43.03524768299991],[-74.23515963099993,-43.03536955299995],[-74.22765046099994,-43.02981749499992],[-74.22830704299992,-43.02886637799992],[-74.22601441799992,-43.027045975999954],[-74.2273400599999,-43.0262441669999],[-74.22471311899994,-43.02486547099994],[-74.22384628099991,-43.0143099629999],[-74.22824737999991,-43.00735862599993],[-74.23236594299993,-43.00509183899993],[-74.23869029999992,-43.00520164599993],[-74.24090288799994,-43.00387471099992],[-74.24228146899992,-43.005128956999954],[-74.24270548299995,-43.00379978399991],[-74.24838903999995,-43.00792005599993],[-74.2466486639999,-43.0039705879999],[-74.25163411099993,-43.00386816699995],[-74.25076902199993,-43.00254983099995],[-74.25193250799992,-43.00203623199991],[-74.24902953999992,-42.999919038999906],[-74.24950508699993,-42.99734117999992],[-74.25208585599995,-42.99715884099993],[-74.25200118799995,-42.994984830999954],[-74.25373705999993,-42.99324834099991],[-74.2560217969999,-42.99406920599995],[-74.2561247509999,-42.99269335199995],[-74.25818162599995,-42.991945991999955],[-74.26285703299993,-42.99180522699993],[-74.25802070599991,-42.99044140199993],[-74.25632739899993,-42.988214601999914],[-74.25611889699991,-42.98935689099994],[-74.25520838099993,-42.98815967299993],[-74.24954812599992,-42.987908267999956],[-74.24792513999995,-42.98659910199996],[-74.24670961299995,-42.98780623099992],[-74.2431815839999,-42.987032438999904],[-74.24147396899991,-42.98602044699993],[-74.24245699999994,-42.98525261499992],[-74.24165745499994,-42.98429428299994],[-74.24365940099995,-42.98379527199995],[-74.24212845199992,-42.9816169849999],[-74.22881733799994,-42.97951477999993],[-74.22820234599993,-42.978092989999936],[-74.22643993299994,-42.978903087999925],[-74.21483366599995,-42.976786939999954],[-74.20561146799992,-42.96975421199994],[-74.20315119399993,-42.96555564999994],[-74.2027646649999,-42.95654672599994],[-74.20500769799992,-42.9559644979999],[-74.20461699399993,-42.954818134999925],[-74.20605603799993,-42.95389890999991],[-74.20524771299995,-42.95117713099995],[-74.20206180199995,-42.94797418699994],[-74.20485423299993,-42.94646875099994],[-74.2037472319999,-42.945543751999935],[-74.2068024589999,-42.94502887699991],[-74.20781220899994,-42.94595317399995],[-74.20850520899995,-42.942491272999916],[-74.21023125599993,-42.94319415099994],[-74.21071698299994,-42.94198237099994],[-74.2128094599999,-42.9419253019999],[-74.2107709309999,-42.939028306999944],[-74.20970993299994,-42.93958089999995],[-74.20728728299991,-42.93757466799991],[-74.20804841499995,-42.93385114999995],[-74.21327858199993,-42.92927685799992],[-74.21716462799992,-42.92837427899991],[-74.21998454499993,-42.93101440499993],[-74.22136906499992,-42.92921304399994],[-74.22297078699995,-42.930760713999916],[-74.22196989799994,-42.929133737999905],[-74.2233399509999,-42.92847590899993],[-74.22473350399991,-42.92981961999993],[-74.22624992599992,-42.92782848299993],[-74.22767981999993,-42.92886266499994],[-74.22888278799991,-42.92729824799994],[-74.23057415399995,-42.928167370999915],[-74.22744698799994,-42.92414351299993],[-74.22787351099993,-42.91724870899992],[-74.22303542999992,-42.91529796499992],[-74.2226330709999,-42.913782269999956],[-74.21658654399994,-42.912585477999926],[-74.21526623199992,-42.91062268499991],[-74.20350991999993,-42.9111133209999],[-74.19958950099993,-42.907226127999934],[-74.18871382599991,-42.90610121599991],[-74.18568651999993,-42.90709233599995],[-74.18379058499994,-42.905851782999946],[-74.17916198699993,-42.90660495299994],[-74.1716224139999,-42.90326262399992],[-74.16721970899994,-42.89807229899992],[-74.16443205299993,-42.892119246999926],[-74.1595975269999,-42.87229610399993],[-74.1593010549999,-42.867886049999925],[-74.1606108929999,-42.86564406799994],[-74.1587575559999,-42.86616655799992],[-74.1577532309999,-42.86380036299994],[-74.15549205699995,-42.863354830999924],[-74.15217090499993,-42.85496342899995],[-74.15163187499991,-42.849467741999945],[-74.15022901599991,-42.85005527299995],[-74.14608246999995,-42.84778748699995],[-74.14328785599992,-42.85012807299995],[-74.14067035999994,-42.84770369899991],[-74.13625241999995,-42.850874320999935],[-74.13009598299993,-42.85209771099994],[-74.12745885099991,-42.851327187999914],[-74.12473780499994,-42.85302449499994],[-74.12470310799995,-42.854334681999944],[-74.1220143239999,-42.854397485999925],[-74.1214326729999,-42.85316596399991],[-74.11662790299994,-42.85173514799993],[-74.11594288799995,-42.85321901099991],[-74.10408388799993,-42.854605575999926],[-74.10227694999992,-42.85274470899992],[-74.09569167299992,-42.85199318399992],[-74.09086309299994,-42.852877952999904],[-74.08957187499993,-42.85124498099992],[-74.08263338599994,-42.85324476499994],[-74.07781728099991,-42.85333924799994],[-74.07440288299995,-42.851686971999925],[-74.06661077599995,-42.85203677499993],[-74.0650978189999,-42.85116698999991],[-74.0657586239999,-42.84782428299991],[-74.06003253299991,-42.846695405999924],[-74.04546802699991,-42.85096646499994],[-74.04010466599993,-42.849160173999906],[-74.03686578499992,-42.8546894129999],[-74.03460463399995,-42.85489949999993],[-74.02915613599993,-42.86101132899995],[-74.01986433899992,-42.85946932999991],[-74.01180731799991,-42.86081492999995],[-74.0102239229999,-42.81994187899994],[-74.00984474799992,-42.823819870999955],[-74.00553289699991,-42.82813369199994]]],[[[-73.5613031769999,-43.13532751899993],[-73.55362649799991,-43.137363051999955],[-73.55484019199992,-43.14039224399994],[-73.55012384899993,-43.14929073099995],[-73.5518771639999,-43.152207662999956],[-73.55204939399994,-43.15593843399995],[-73.5512175529999,-43.156023201999915],[-73.5522649479999,-43.15783523899995],[-73.55084819399991,-43.15925870399991],[-73.55198306499994,-43.16219161799995],[-73.54904307299995,-43.168837227999916],[-73.53822715799993,-43.17196352299993],[-73.5289069239999,-43.17308292999991],[-73.52641274199993,-43.17527844299991],[-73.52754131499995,-43.17775883899992],[-73.52218271999993,-43.17925025599993],[-73.51738842899994,-43.17759195799994],[-73.51989979699994,-43.17268084199992],[-73.5118939859999,-43.1719337049999],[-73.5099218229999,-43.17606545299992],[-73.51139398899994,-43.17777617799993],[-73.50976723299993,-43.17974436299994],[-73.50882529599994,-43.176980328999946],[-73.50753022799995,-43.17668945499992],[-73.51109522099995,-43.17131577999993],[-73.51613159999994,-43.16899874399991],[-73.51468518999991,-43.16622820899994],[-73.50947372099995,-43.16370646799993],[-73.50785023899994,-43.1608739749999],[-73.51147979299992,-43.15212989899993],[-73.5146586059999,-43.15120631199994],[-73.52289259499992,-43.156554394999944],[-73.52252918999994,-43.15745504699993],[-73.52497412699995,-43.15660507899992],[-73.52728695699994,-43.15921987299993],[-73.53140796999992,-43.15836750999995],[-73.53259969399994,-43.15684610099993],[-73.52833715999992,-43.144616835999955],[-73.5247800439999,-43.14167629499991],[-73.5188814949999,-43.14073046899995],[-73.51166248699991,-43.147283916999925],[-73.5063554859999,-43.154767224999944],[-73.49827788999994,-43.17322591899995],[-73.50986777899993,-43.18364101599991],[-73.52365454799991,-43.18909696299994],[-73.53321046299993,-43.19455663499991],[-73.55882114699995,-43.19802704199992],[-73.57898246999991,-43.20418781199993],[-73.58879109999992,-43.20253430699995],[-73.59013374799991,-43.200799746999905],[-73.58880375699994,-43.19986609499995],[-73.5766532959999,-43.2021099289999],[-73.57089331999993,-43.20052524099992],[-73.56898155099992,-43.195236078999926],[-73.56159559199995,-43.18597091599992],[-73.56279607199991,-43.18406811299991],[-73.56783644799992,-43.18363100999994],[-73.57183527599994,-43.1810841059999],[-73.5776990359999,-43.17391442799993],[-73.57848453699995,-43.16531151699991],[-73.58590191799993,-43.15276435399994],[-73.58707687399993,-43.14484517599993],[-73.58556863699994,-43.14040701099992],[-73.58090896199991,-43.13790724799992],[-73.56931648999995,-43.13766755899991],[-73.5613031769999,-43.13532751899993]]],[[[-73.61195294099991,-43.1682422529999],[-73.61069647599993,-43.17121480499992],[-73.61372190799995,-43.17297908599994],[-73.61383347899994,-43.17617757599993],[-73.60741845299992,-43.18192181299992],[-73.61282352299992,-43.18896508799992],[-73.61031859299993,-43.19192988899994],[-73.6103929169999,-43.194735289999926],[-73.60878071499991,-43.19618524999993],[-73.60791123299992,-43.20003365799994],[-73.6031420999999,-43.202062061999925],[-73.59667300799993,-43.209330646999945],[-73.59635207299993,-43.212624787999914],[-73.59978686999995,-43.21533675999996],[-73.60180345399993,-43.219713990999935],[-73.59946417299994,-43.222063574999936],[-73.5982082349999,-43.23001291999992],[-73.5923274729999,-43.232229150999956],[-73.5894231549999,-43.23642252199994],[-73.58698399799994,-43.23574177599994],[-73.58487903999992,-43.237196515999926],[-73.58589458699993,-43.23839817399994],[-73.58243598799993,-43.241316885999936],[-73.57745178599993,-43.2418607699999],[-73.5709411169999,-43.248622517999934],[-73.57507038199992,-43.25449611499994],[-73.57996861999993,-43.2570361839999],[-73.58121216199993,-43.259665379999944],[-73.58084945899992,-43.26349998699993],[-73.5767630819999,-43.2661357689999],[-73.57731570399994,-43.26890764199993],[-73.57545803999994,-43.27204171499994],[-73.57632237299993,-43.272954532999904],[-73.57908497999995,-43.271871123999915],[-73.58770395199991,-43.272262224999906],[-73.58966604699992,-43.269227291999925],[-73.5928878009999,-43.26858062699995],[-73.59098478399994,-43.26615498199993],[-73.59488886999992,-43.263251717999935],[-73.59085174699993,-43.26028997199995],[-73.59143689799993,-43.25876760299991],[-73.59435739999992,-43.25719551699996],[-73.59817213899993,-43.25815420099991],[-73.59995592099995,-43.25583265899991],[-73.61025365299992,-43.25191859499995],[-73.61142600099993,-43.24991300499994],[-73.60925895899993,-43.2496513559999],[-73.61182312599993,-43.24955504099995],[-73.6123595169999,-43.24719854499995],[-73.61720107199994,-43.24544325599993],[-73.61894308599994,-43.243140516999915],[-73.62383236499994,-43.24281705399994],[-73.6227222469999,-43.24148981999991],[-73.6264687449999,-43.238299216999906],[-73.62486298499994,-43.237544545999924],[-73.62256666299993,-43.23291835899994],[-73.62382158199995,-43.23018805599992],[-73.6223982219999,-43.22968066999994],[-73.6234784369999,-43.22875239199993],[-73.62115792199995,-43.2293813789999],[-73.62026714099994,-43.22844896399994],[-73.61944489799993,-43.22210498699991],[-73.62392942399993,-43.21705059599992],[-73.62537414299993,-43.21122415199994],[-73.6313202629999,-43.20372641999995],[-73.63214688199992,-43.19624269199994],[-73.63691467699994,-43.19283324499992],[-73.6373316079999,-43.18994396699992],[-73.64261997099993,-43.18652925799995],[-73.6403765089999,-43.18400099599995],[-73.63529431899991,-43.183671244999914],[-73.63121275099991,-43.18109842399991],[-73.62770731799992,-43.176086838999936],[-73.62679372899993,-43.17034345899992],[-73.62127719599994,-43.16757355599992],[-73.6183798799999,-43.16420683899992],[-73.61195294099991,-43.1682422529999]]],[[[-73.7174690359999,-43.17529620599993],[-73.71192104099993,-43.177509147999956],[-73.71226729699993,-43.180395854999915],[-73.70638098299992,-43.18163980999992],[-73.69359082999995,-43.1882964479999],[-73.68155028899992,-43.19115695499994],[-73.6691832809999,-43.19146969299993],[-73.6625453339999,-43.19423933699994],[-73.66385553399994,-43.19836442299993],[-73.66180057299994,-43.20149718099992],[-73.66194452399992,-43.20459608199991],[-73.66399462899994,-43.20989722399992],[-73.66244769799994,-43.21435819199991],[-73.66623551599992,-43.21841688399991],[-73.66412706099993,-43.22098916899995],[-73.66598067199993,-43.223381357999926],[-73.67036840499992,-43.22236033599995],[-73.67233061499991,-43.223514801999954],[-73.67201498299994,-43.22529798799991],[-73.66563794199993,-43.23013164999992],[-73.6643405669999,-43.23284442999994],[-73.66444133899995,-43.23718168799991],[-73.6669882349999,-43.23843836599991],[-73.6663820039999,-43.24008710999993],[-73.6683897289999,-43.240670379999926],[-73.66785541999991,-43.24201024699994],[-73.66909861199991,-43.24253694899994],[-73.66824189699992,-43.246708192999904],[-73.67370443999994,-43.246545331999926],[-73.67397236399995,-43.24771584399991],[-73.67762540199993,-43.2453280279999],[-73.67870635199995,-43.245828924999955],[-73.68018463599992,-43.243022777999954],[-73.69302446699993,-43.231603357999916],[-73.69482181899991,-43.226775560999954],[-73.70668843199991,-43.22797055099994],[-73.70704790099995,-43.226378360999945],[-73.7121453179999,-43.22257626599992],[-73.72798820699995,-43.21661867899991],[-73.73177172699991,-43.21638670599992],[-73.73493609699995,-43.21380102499995],[-73.73535388699992,-43.21092284899993],[-73.73793585699991,-43.20812812999992],[-73.74417989799991,-43.20462313299993],[-73.74326051499992,-43.20181362299991],[-73.74491454999992,-43.198972805999915],[-73.74423652899992,-43.19789324699991],[-73.73558866699994,-43.19640423399994],[-73.72882544499993,-43.191993157999946],[-73.72658724599995,-43.190014627999915],[-73.72804481499992,-43.18489658899995],[-73.72645957199995,-43.18049517499992],[-73.7208453149999,-43.17573903199991],[-73.7174690359999,-43.17529620599993]]],[[[-73.76000087499995,-43.31703495399995],[-73.7533849109999,-43.32265482299994],[-73.75039555699993,-43.32344997599995],[-73.75074890899992,-43.32464951399993],[-73.74719388599993,-43.32599025199994],[-73.73097381199995,-43.32809239699992],[-73.72568122599995,-43.325734165999904],[-73.72620541099991,-43.324765069999955],[-73.72386617399991,-43.324573434999934],[-73.70887089599995,-43.33252393099991],[-73.70814946899992,-43.331747943999915],[-73.71055495599995,-43.329356971999914],[-73.71003424899993,-43.32799878599991],[-73.69478675699992,-43.342364311999916],[-73.69094086299992,-43.34423342799994],[-73.68660003899993,-43.34414797699992],[-73.68366972799993,-43.34681833099995],[-73.6795754499999,-43.34745011799993],[-73.6780950939999,-43.34646813499995],[-73.67508451999993,-43.34905395399994],[-73.67511561099991,-43.34687440199991],[-73.67187689899993,-43.3456932709999],[-73.66851212799992,-43.34729801199995],[-73.66556510099991,-43.351432890999945],[-73.66269587399995,-43.35200688899994],[-73.66222064699991,-43.355062733999944],[-73.66365973099994,-43.36015410199991],[-73.66742412199994,-43.365689491999944],[-73.66712289499992,-43.36676997699993],[-73.66579089599992,-43.366456641999946],[-73.6672080479999,-43.37108313099992],[-73.6689393289999,-43.370317101999944],[-73.67424552599994,-43.37184392699993],[-73.67626179299992,-43.37373747599992],[-73.67647328099991,-43.37827840999995],[-73.67867563399994,-43.379888180999956],[-73.67509840899993,-43.38216963299993],[-73.67572219499993,-43.38652474699995],[-73.67878665299992,-43.388311261999945],[-73.68050531799992,-43.38739005899993],[-73.68226878699994,-43.391936958999906],[-73.6908354009999,-43.39159461599991],[-73.6944486299999,-43.388559982999936],[-73.69590407899994,-43.383907078999925],[-73.69921436599992,-43.38338491799993],[-73.70218908999993,-43.3855747959999],[-73.70061114299995,-43.386807638999926],[-73.70612520499992,-43.38634603599991],[-73.70717963499993,-43.39052716999993],[-73.71685890499992,-43.392399173999934],[-73.7185852639999,-43.395741984999916],[-73.71988853499994,-43.39591143899992],[-73.71957327699994,-43.39769470999994],[-73.72299902799995,-43.39792361199994],[-73.72261744999992,-43.39897951899991],[-73.72437561499993,-43.399273121999954],[-73.72592210999994,-43.398754323999924],[-73.7251779579999,-43.397626301999935],[-73.72802698099991,-43.39731258099994],[-73.73021357499994,-43.39899265299994],[-73.73286501099994,-43.39718761699993],[-73.73185701599994,-43.395389639999905],[-73.7358718719999,-43.39556512799993],[-73.73806301699994,-43.394672105999916],[-73.7369987479999,-43.39400519499992],[-73.73827009399992,-43.393352156999924],[-73.74794067899995,-43.39254122999995],[-73.7499792509999,-43.39111026699993],[-73.74873968599991,-43.390227130999904],[-73.75666030799994,-43.38629917299994],[-73.76161632199995,-43.38113547899991],[-73.76529081699994,-43.37953135099991],[-73.76910562799992,-43.3806683869999],[-73.76981721499993,-43.38262962099992],[-73.76840398299993,-43.38386517299995],[-73.7703357879999,-43.38444582999995],[-73.77415361699991,-43.383021638999935],[-73.77384622999995,-43.37882530099995],[-73.7712175449999,-43.37798706399991],[-73.77359050599995,-43.376928541999916],[-73.77213981599994,-43.376793852999924],[-73.77241116199991,-43.37467641899991],[-73.77695499599992,-43.372032979999915],[-73.77546454299994,-43.37144524899992],[-73.7775579719999,-43.370467033999944],[-73.77631828599993,-43.367154128999914],[-73.7802136919999,-43.36424154999992],[-73.78153613799992,-43.364243735999935],[-73.78045410999994,-43.365280464999955],[-73.78197043799992,-43.36620194499994],[-73.78451922199991,-43.365299921999906],[-73.7867561569999,-43.36038015899993],[-73.78590252799995,-43.35897738299991],[-73.78362075699994,-43.35878636599995],[-73.78315928299992,-43.356553893999944],[-73.78023497099991,-43.357475706999935],[-73.77764987099994,-43.36019979899993],[-73.77812205999993,-43.35782242499994],[-73.78188846699993,-43.35397926099995],[-73.78623840999995,-43.35277474199995],[-73.79143372699991,-43.34926804299994],[-73.79367598899995,-43.34649236899992],[-73.79279730199994,-43.3447081889999],[-73.79475444899992,-43.343132606999916],[-73.79369184899991,-43.34239476199991],[-73.79467456899994,-43.34057065499991],[-73.80485380599993,-43.330843159999915],[-73.80442061699995,-43.32866747599991],[-73.80838858299995,-43.32448236999994],[-73.8088183349999,-43.32075245499993],[-73.80704013999991,-43.32044443199993],[-73.80641285599995,-43.317159482999955],[-73.78881463699992,-43.32019075099993],[-73.78468715199995,-43.316084909999915],[-73.7808075929999,-43.31755646499994],[-73.7687245159999,-43.31726024199992],[-73.76617092799995,-43.314457182999945],[-73.76000087499995,-43.31703495399995]]],[[[-73.67194534799995,-43.253657769999904],[-73.6689789159999,-43.255670953999925],[-73.66947122899995,-43.25776132999994],[-73.66578167199992,-43.260279485999945],[-73.66586833899993,-43.262281756999926],[-73.67090087999992,-43.26097043899995],[-73.67522005199993,-43.2579710089999],[-73.67600071599992,-43.25428724299991],[-73.67194534799995,-43.253657769999904]]],[[[-73.70061207499992,-43.33320023299996],[-73.69507856199994,-43.33555538599995],[-73.69482894999993,-43.33806599499991],[-73.69906030999994,-43.33632739199993],[-73.69770533099995,-43.3355853299999],[-73.70061207499992,-43.33320023299996]]],[[[-73.72705943999995,-43.146005069999944],[-73.71824117799991,-43.1485781369999],[-73.71769229199992,-43.15240763699995],[-73.72241501099995,-43.15369922799994],[-73.72627286799991,-43.15247364499993],[-73.7294040619999,-43.148926531999905],[-73.72758204099995,-43.148324216999924],[-73.72705943999995,-43.146005069999944]]],[[[-73.72690981399995,-43.11823112099995],[-73.72362761099993,-43.1197523859999],[-73.7280128939999,-43.12217506899992],[-73.73143749799993,-43.12160479399995],[-73.73225477199992,-43.11978896099993],[-73.72690981399995,-43.11823112099995]]],[[[-73.7277467639999,-43.145296328999905],[-73.73087905099993,-43.14462965799993],[-73.73086576599991,-43.141331142999945],[-73.72863392599993,-43.14182872799995],[-73.7277467639999,-43.145296328999905]]],[[[-73.72820915499994,-43.11687634599991],[-73.73017947999995,-43.117008064999936],[-73.7291091649999,-43.11598570299992],[-73.72820915499994,-43.11687634599991]]],[[[-73.7393413289999,-43.323679839999954],[-73.73737305799995,-43.32527165699992],[-73.73996248899994,-43.3248379609999],[-73.7393413289999,-43.323679839999954]]],[[[-73.74588898499991,-43.20294280499991],[-73.74397111999991,-43.206418898999914],[-73.7481587719999,-43.20431849399995],[-73.74588898499991,-43.20294280499991]]],[[[-73.78664575199991,-43.35936645899994],[-73.78809704799994,-43.358631385999956],[-73.78645089199995,-43.35849480799993],[-73.78664575199991,-43.35936645899994]]],[[[-73.82937097599995,-43.43411898599993],[-73.83101100399995,-43.433130407999954],[-73.82860793399993,-43.43255286699991],[-73.82937097599995,-43.43411898599993]]],[[[-73.85700063699994,-43.28727941199992],[-73.86131801499994,-43.28835884299991],[-73.86295826499992,-43.28696951499995],[-73.85700063699994,-43.28727941199992]]],[[[-73.88810643399995,-43.40881211499993],[-73.8882574669999,-43.40752738599991],[-73.88701780299994,-43.40790273499994],[-73.88810643399995,-43.40881211499993]]],[[[-74.06910692899993,-43.34675527899992],[-74.07206659799994,-43.34509781499992],[-74.07274539199994,-43.343342486999916],[-74.07052988499993,-43.34324518599993],[-74.06798076699994,-43.345064589999936],[-74.06910692899993,-43.34675527899992]]],[[[-74.0803053109999,-43.39332961699995],[-74.07806809599992,-43.39391482199994],[-74.07971185399992,-43.394617454999945],[-74.0803053109999,-43.39332961699995]]],[[[-74.09058965499992,-43.39617412599995],[-74.08977286599992,-43.40053936399994],[-74.08745104999991,-43.4017597159999],[-74.08540675299992,-43.40624614899991],[-74.08634782099995,-43.406682506999914],[-74.08581276099994,-43.40966815999991],[-74.08858591099994,-43.41106018399995],[-74.08752344599992,-43.41761525299995],[-74.09236442199995,-43.41626006999991],[-74.0911138379999,-43.41465392199996],[-74.09415710499991,-43.414392179999936],[-74.09395055699991,-43.409613807999904],[-74.09638230399992,-43.40870390799995],[-74.09747330999994,-43.41115449699993],[-74.1005123779999,-43.41005870899994],[-74.1011049789999,-43.408657743999925],[-74.1005318629999,-43.40322133099994],[-74.09720256599991,-43.40298067899994],[-74.0954331179999,-43.40112032299993],[-74.09481141399993,-43.396791314999916],[-74.09058965499992,-43.39617412599995]]],[[[-74.12171282399993,-43.38482588399995],[-74.11828552199995,-43.38577630399993],[-74.11900006499991,-43.387187440999924],[-74.12069204699992,-43.38538982199992],[-74.12124694199991,-43.3865495629999],[-74.12171282399993,-43.38482588399995]]],[[[-74.12294696099991,-43.39022386399995],[-74.12056903399991,-43.39157516899991],[-74.1224951239999,-43.39429724699994],[-74.12439594599994,-43.39271929799992],[-74.12294696099991,-43.39022386399995]]],[[[-74.12783744099994,-43.39029311699994],[-74.1260540639999,-43.392827532999945],[-74.12928708399994,-43.39275664399992],[-74.13040390399993,-43.39101337099993],[-74.12873715599994,-43.39151029099992],[-74.12783744099994,-43.39029311699994]]],[[[-74.16616176199994,-43.35202155499991],[-74.1669334959999,-43.35441278899992],[-74.1680802489999,-43.3519106249999],[-74.16616176199994,-43.35202155499991]]],[[[-74.19792903599995,-43.353435229999945],[-74.1929721379999,-43.35916586099995],[-74.19425357799992,-43.36226015199992],[-74.19239035499993,-43.363640733999944],[-74.1940774819999,-43.364462663999916],[-74.19533598899994,-43.3680690029999],[-74.1989212009999,-43.36487788499994],[-74.1981997069999,-43.362633338999956],[-74.19966701599992,-43.360308828999905],[-74.2019349549999,-43.359169195999925],[-74.20347688399994,-43.359858939999924],[-74.2037076389999,-43.35844299599995],[-74.20703772399992,-43.35721535399995],[-74.19792903599995,-43.353435229999945]]],[[[-74.2035699999999,-43.45413000099995],[-74.19965999999994,-43.45559999999995],[-74.20105999999993,-43.458720000999904],[-74.2034999999999,-43.457589999999925],[-74.20173999999992,-43.45669000099991],[-74.2035699999999,-43.45413000099995]]],[[[-74.20174119399991,-43.44642081399991],[-74.20151999899991,-43.448459999999955],[-74.20749999999992,-43.444899999999905],[-74.20610999999991,-43.4438199999999],[-74.20174119399991,-43.44642081399991]]],[[[-74.20684999999992,-43.4584099999999],[-74.20204999999993,-43.45928999999995],[-74.20373999999993,-43.463019999999915],[-74.20729999999992,-43.46271000099995],[-74.20684999999992,-43.4584099999999]]],[[[-74.20445104599992,-43.466067703999954],[-74.2102099999999,-43.47163999999992],[-74.21225000099992,-43.472310000999926],[-74.2132499999999,-43.470539999999914],[-74.21503999999993,-43.47105999999991],[-74.21276999999992,-43.466160000999935],[-74.20613999999995,-43.46414000099992],[-74.20425999999992,-43.46434999999991],[-74.20445104599992,-43.466067703999954]]],[[[-74.20988148999993,-43.396177508999926],[-74.21031166699993,-43.39943647699994],[-74.21277214899993,-43.39917780099995],[-74.21245058499994,-43.39664314499993],[-74.20988148999993,-43.396177508999926]]],[[[-74.2186205939999,-43.35478655199995],[-74.2151480519999,-43.355709745999945],[-74.2142814799999,-43.3579133959999],[-74.21700722399993,-43.35830693199995],[-74.21859401499995,-43.35685787099993],[-74.2186205939999,-43.35478655199995]]],[[[-74.22902572299995,-43.408854241999904],[-74.23059337799992,-43.40892420599994],[-74.23136392899994,-43.40759277299992],[-74.22902572299995,-43.408854241999904]]],[[[-74.25319858299991,-43.348784776999935],[-74.25000866399995,-43.349347602999956],[-74.24969051199992,-43.351322943999946],[-74.24709699899995,-43.352485207999905],[-74.2472430869999,-43.35783474999994],[-74.24485319399992,-43.36229797999994],[-74.2468522879999,-43.372269744999926],[-74.24679276599994,-43.375759616999915],[-74.24524182199991,-43.378358154999944],[-74.24762603499994,-43.38232870099995],[-74.24715854399994,-43.385792058999925],[-74.24834736299994,-43.38739610499994],[-74.24730650399994,-43.38835414199991],[-74.24907937499995,-43.38896140399993],[-74.2491172149999,-43.39251146799995],[-74.2434947559999,-43.401968369999906],[-74.23940887099991,-43.404704875999926],[-74.23578961999993,-43.40408514199993],[-74.2331488449999,-43.407498147999945],[-74.23343567199993,-43.40937027099994],[-74.23851623899992,-43.410750279999945],[-74.24032610599994,-43.40974978999992],[-74.2408791929999,-43.41125438599994],[-74.24666088799995,-43.412781631999906],[-74.24955934199994,-43.41227655799992],[-74.25221772599991,-43.410030674999916],[-74.25368056999991,-43.414650209999934],[-74.25070004399993,-43.415178674999936],[-74.25114912999993,-43.418516998999905],[-74.25328592199992,-43.41884068599995],[-74.25369961099994,-43.42108285599994],[-74.25600677299991,-43.42084773599993],[-74.25788885399993,-43.42330193999993],[-74.25924608999992,-43.42323926799992],[-74.2617557239999,-43.42786546499991],[-74.26410868199991,-43.427916367999956],[-74.2651997939999,-43.42554097199991],[-74.27015983699994,-43.42488183699993],[-74.2739791329999,-43.42257138399992],[-74.27814701799991,-43.42390809799991],[-74.27876788899994,-43.42667561399992],[-74.27967337699994,-43.42612145399994],[-74.28094554799992,-43.427725677999945],[-74.28063380099991,-43.42506732699991],[-74.27730073099991,-43.42223506199991],[-74.28155924299995,-43.41867636099994],[-74.28407835999991,-43.418465830999935],[-74.28375402299991,-43.416867580999906],[-74.28606262999995,-43.415095203999954],[-74.28040495399995,-43.411271696999904],[-74.28114132199994,-43.40979922799994],[-74.2798552939999,-43.408016234999934],[-74.2822957539999,-43.40474383599991],[-74.2801908639999,-43.40313438399994],[-74.27894336499992,-43.40362683299992],[-74.27887651799995,-43.402375639999946],[-74.27619877299992,-43.40086970899995],[-74.27797081699993,-43.40022574499994],[-74.27859013299991,-43.39759707399992],[-74.28271239599991,-43.39574088899991],[-74.28211362399992,-43.39387883899991],[-74.2788228419999,-43.3917496869999],[-74.27798227199992,-43.388254125999936],[-74.2756171769999,-43.38660720599995],[-74.27672676199995,-43.38257601099991],[-74.2797841869999,-43.38091569199992],[-74.27331922299993,-43.37935003899992],[-74.27294552099994,-43.37782290699994],[-74.27628139399991,-43.37608106599993],[-74.27551985999992,-43.37420603399994],[-74.27166130799992,-43.37187056399995],[-74.27141367599995,-43.36936742899991],[-74.27317338599994,-43.36694854099994],[-74.27657801599992,-43.3676133859999],[-74.27809311899995,-43.36239350799991],[-74.27525830399992,-43.36188717899995],[-74.27229459599994,-43.35850911999995],[-74.2669343199999,-43.35896328699994],[-74.26444008599992,-43.351907157999904],[-74.26257068199993,-43.353955931999906],[-74.26021942799991,-43.35400030799991],[-74.25319858299991,-43.348784776999935]]],[[[-74.24595433699994,-43.41593453799993],[-74.24059739599994,-43.41666932499993],[-74.23916831299994,-43.4188604979999],[-74.2460268829999,-43.42572800699992],[-74.24832196499995,-43.42325950199995],[-74.24549148499995,-43.41847797899993],[-74.24595433699994,-43.41593453799993]]],[[[-74.2487875729999,-43.44465708799993],[-74.2492374869999,-43.44793584799993],[-74.25084729899993,-43.44864921499993],[-74.25148167399993,-43.44493681999995],[-74.24822760699993,-43.43838768199993],[-74.24620636299994,-43.44055427699993],[-74.2487875729999,-43.44465708799993]]],[[[-74.24931069999991,-43.43195364099995],[-74.25029198199991,-43.43165033899993],[-74.25085959499995,-43.42525791799994],[-74.24667922099991,-43.428234938999935],[-74.24931069999991,-43.43195364099995]]],[[[-74.25148932399992,-43.43636020799994],[-74.25454180499992,-43.44203836399993],[-74.25991417199992,-43.44388388899995],[-74.25888832499993,-43.439529354999934],[-74.2562533869999,-43.43844016499992],[-74.25487052199992,-43.432570437999914],[-74.25148932399992,-43.43636020799994]]],[[[-74.25244368099993,-43.45037097599993],[-74.25445231299994,-43.45011145099994],[-74.25481531299994,-43.44868071499991],[-74.25244368099993,-43.45037097599993]]],[[[-74.26531081999991,-43.43201036499994],[-74.26582917799993,-43.429657265999936],[-74.26427411799995,-43.42942590899992],[-74.26531081999991,-43.43201036499994]]],[[[-74.26747327599992,-43.43126314199992],[-74.26662190099995,-43.43273477999992],[-74.27079086099991,-43.43810994899991],[-74.27123648699995,-43.44184125699991],[-74.2726526639999,-43.442350578999935],[-74.2739104499999,-43.439702188999945],[-74.27243143399994,-43.43762009299991],[-74.27207484099995,-43.43191195499992],[-74.26747327599992,-43.43126314199992]]],[[[-74.27662233599995,-43.32590976499995],[-74.27766594199994,-43.324223254999936],[-74.27622440399995,-43.32440096799991],[-74.27662233599995,-43.32590976499995]]],[[[-74.28646634899991,-43.36726570299993],[-74.28611162699991,-43.37067010399994],[-74.29054423799994,-43.36850316399995],[-74.28968787299993,-43.366954026999906],[-74.28646634899991,-43.36726570299993]]],[[[-74.2931087039999,-43.375628211999924],[-74.28839698999991,-43.37636137499993],[-74.28839521399993,-43.37914182399993],[-74.28989265999991,-43.37990230399993],[-74.28958109799993,-43.37762442899992],[-74.29248091199992,-43.37806844399995],[-74.29487691799994,-43.376894819999904],[-74.29479574699991,-43.37594133899995],[-74.29117130199995,-43.3770176619999],[-74.2931087039999,-43.375628211999924]]],[[[-74.28942183399994,-43.395564330999946],[-74.29047140699993,-43.39439138999995],[-74.28885549199993,-43.39348681999991],[-74.28942183399994,-43.395564330999946]]],[[[-74.29457424169753,-43.36578481354638],[-74.29481836699995,-43.36489332299993],[-74.29374827999993,-43.36518017399993],[-74.29457424169753,-43.36578481354638]]],[[[-74.74338933999991,-43.51732837399993],[-74.74074689199995,-43.518037128999936],[-74.74093786499992,-43.521223998999915],[-74.7396882299999,-43.52156362899996],[-74.74031347599993,-43.5236794139999],[-74.73803173499994,-43.526524225999935],[-74.73808658399992,-43.52865295799995],[-74.73363570599992,-43.52589257799991],[-74.72981275699993,-43.52605451699992],[-74.72848343399994,-43.52726327699992],[-74.72507210099991,-43.52610536599991],[-74.72203054999994,-43.528148933999944],[-74.71957839399994,-43.527381617999936],[-74.71812208699993,-43.52829473699995],[-74.71512048799991,-43.53085094799991],[-74.71581476099993,-43.533074505999934],[-74.71289782999992,-43.53121828299993],[-74.70639216899991,-43.53404508199992],[-74.7027055499999,-43.53241967999992],[-74.70156514099995,-43.534156881999934],[-74.70385644299995,-43.537254753999946],[-74.7014865129999,-43.53710875599995],[-74.70002559499994,-43.53454128499993],[-74.69667169399992,-43.53473442099994],[-74.69480932999994,-43.535599550999905],[-74.69540347599991,-43.53636246099995],[-74.68927093699995,-43.53696744899992],[-74.68844977899994,-43.53882968499994],[-74.69149344199991,-43.540888853999945],[-74.68288861299993,-43.54038365799994],[-74.68310833399994,-43.54328972999991],[-74.68071981199995,-43.542583909999905],[-74.67775856299994,-43.54515478299993],[-74.67624501899991,-43.54459116699991],[-74.67608052799994,-43.54738740199991],[-74.67473565299991,-43.54722821099995],[-74.67711093499992,-43.550435610999955],[-74.68031114399992,-43.551205927999945],[-74.68017722199994,-43.55229315699995],[-74.67518447399993,-43.551160402999926],[-74.6728726099999,-43.55203943299995],[-74.67179098399993,-43.55059137199993],[-74.67035205199994,-43.552001118999954],[-74.66506019199994,-43.55091367099993],[-74.66409158199991,-43.55223149199992],[-74.65399718499992,-43.55420568899996],[-74.6561175839999,-43.553248778999944],[-74.65548600199992,-43.551615470999934],[-74.65365030099991,-43.55136132899992],[-74.65137954099993,-43.548759713999914],[-74.64877396199995,-43.54867405299996],[-74.64878197199994,-43.55097358499995],[-74.65060920299993,-43.5526882769999],[-74.64467551299992,-43.55545114899991],[-74.64342425899991,-43.55751370099995],[-74.64178199499992,-43.557042450999916],[-74.64169138799991,-43.56151687699992],[-74.63499783499992,-43.562521157999925],[-74.63407129899991,-43.56627832299995],[-74.63092309199993,-43.56675658699993],[-74.63205333899992,-43.56946420999992],[-74.62731644899992,-43.56984195699994],[-74.6243559319999,-43.57171433299993],[-74.62534819699994,-43.57286112199995],[-74.62160796699993,-43.576243664999936],[-74.6194657069999,-43.575593316999914],[-74.61726121399994,-43.57701537399993],[-74.61560161199992,-43.575187301999904],[-74.6125632099999,-43.576332488999924],[-74.60995037099991,-43.57498948399996],[-74.6101905939999,-43.57584795199995],[-74.60840297099992,-43.576115813999934],[-74.60840854799994,-43.57778348399995],[-74.60239671399995,-43.58006170899995],[-74.60472121099991,-43.580403298999954],[-74.59669933399994,-43.5818046949999],[-74.59637599399991,-43.58360223299991],[-74.5941136049999,-43.58376098699995],[-74.5944589049999,-43.58602544899992],[-74.59299421799994,-43.584519361999924],[-74.59207753099992,-43.58680315399994],[-74.59584236799992,-43.58743593699995],[-74.59693856399991,-43.590155688999914],[-74.60132388699992,-43.59117165299995],[-74.60216790699991,-43.59241341599994],[-74.59597920199991,-43.59392832899994],[-74.59014408299993,-43.591596678999906],[-74.58679039399993,-43.59551548399992],[-74.58514293799993,-43.594365989999915],[-74.5804062979999,-43.594384437999906],[-74.58201305199992,-43.59666546799991],[-74.5809892979999,-43.597757600999955],[-74.58240598599991,-43.59909689999995],[-74.5822263419999,-43.601371384999936],[-74.5798306339999,-43.601743780999925],[-74.57846984899993,-43.59943980599991],[-74.57678231999995,-43.59933827799995],[-74.57437507199995,-43.60135433599993],[-74.57354878599995,-43.604626982999946],[-74.57348656699992,-43.60647306799996],[-74.57635452699992,-43.60657902499992],[-74.57691497999991,-43.608475064999936],[-74.57622213899992,-43.61609599499991],[-74.5703380249999,-43.61584770799993],[-74.56995858099992,-43.61847876799993],[-74.56232927399992,-43.61920025099994],[-74.55980684399992,-43.62109643699995],[-74.56739815999993,-43.62342437199993],[-74.56415603799991,-43.62506778099993],[-74.55411224699992,-43.62620830399993],[-74.5550918799999,-43.62678388099994],[-74.55339948299991,-43.62724183799992],[-74.56285823899992,-43.6276595729999],[-74.56737099999992,-43.62950454899993],[-74.56731228899991,-43.630621393999945],[-74.57135790899991,-43.629703699999936],[-74.57092983899992,-43.63048772399992],[-74.57362985599991,-43.63105022199994],[-74.5726321919999,-43.633513862999905],[-74.57523856599994,-43.63299573199993],[-74.57693894399995,-43.63393497299995],[-74.57632207499995,-43.63513568199994],[-74.58151940399995,-43.633890454999914],[-74.58500621799993,-43.630674719999945],[-74.59207373499993,-43.63186470799991],[-74.59405381399995,-43.630061181999906],[-74.60394925299994,-43.634014832999924],[-74.60814835399992,-43.63391018699991],[-74.61223694299991,-43.63568705599994],[-74.61352416099993,-43.63700169799995],[-74.61292097199993,-43.638988903999916],[-74.61597430599994,-43.638570382999944],[-74.61541174299992,-43.636769830999924],[-74.61876813599991,-43.6350896159999],[-74.63804145099994,-43.637344011999915],[-74.64286561499995,-43.639729605999946],[-74.64646852099992,-43.643457241999954],[-74.65106394199995,-43.6429948949999],[-74.6521670379999,-43.63943667099994],[-74.65445736299995,-43.643326816999945],[-74.6570858039999,-43.6426200329999],[-74.65875059799993,-43.64407823599993],[-74.65946384699993,-43.64267478799991],[-74.65797658699995,-43.64172932699995],[-74.65834627299995,-43.64017000599995],[-74.66117730199994,-43.63840359399995],[-74.66269286799991,-43.64014717899994],[-74.66304302399993,-43.639123808999955],[-74.6663234639999,-43.63909769599991],[-74.66818363099992,-43.64084221299993],[-74.6705773029999,-43.64102780999991],[-74.6712089799999,-43.642494762999945],[-74.6749262699999,-43.640575705999936],[-74.67539460499995,-43.64193496599995],[-74.68196074899993,-43.64094093099993],[-74.68254236799993,-43.64262209099991],[-74.68394011299995,-43.64194699899991],[-74.68332196799992,-43.64096853299992],[-74.6855846009999,-43.64112962999991],[-74.68824953299992,-43.642792648999944],[-74.68803655699992,-43.64591292199992],[-74.68957510899992,-43.643379926999955],[-74.69065283999993,-43.64432386999994],[-74.69246011099995,-43.64374507499991],[-74.69351519299994,-43.64592774099992],[-74.69600834599993,-43.645958220999944],[-74.69583313999993,-43.64492144199994],[-74.69846361299994,-43.64372533399995],[-74.6976508699999,-43.64552184599995],[-74.6986865209999,-43.645071937999944],[-74.6992996699999,-43.64711044399991],[-74.7016111989999,-43.64739046999995],[-74.70309271399992,-43.64966945099991],[-74.7055241939999,-43.648925306999956],[-74.70747983399991,-43.651574712999945],[-74.71019490999993,-43.649854439999956],[-74.7145455669999,-43.65258124099995],[-74.71950219199994,-43.652093220999916],[-74.72418841399991,-43.653319610999915],[-74.72635912099992,-43.65939975899994],[-74.72930662399995,-43.660681319999924],[-74.72872068099991,-43.66327666299992],[-74.73064386599992,-43.66250695699995],[-74.73128508399992,-43.66589136399995],[-74.73680709599995,-43.67141928399991],[-74.73972136299994,-43.6691865759999],[-74.74228919699993,-43.67116971999991],[-74.7419194979999,-43.673193856999944],[-74.74531407599994,-43.67377322699991],[-74.74702534799991,-43.67269307099991],[-74.7470487139999,-43.67494441499991],[-74.74893315899993,-43.67562752999993],[-74.74917457599992,-43.67282883599995],[-74.75548266299995,-43.67529629099994],[-74.75697834099992,-43.67473963599991],[-74.75594960899991,-43.673462903999905],[-74.75820442699995,-43.67183580699992],[-74.75875264199993,-43.67426692999993],[-74.76000205499992,-43.67372162799995],[-74.75920781399992,-43.67535184499991],[-74.76066845899993,-43.67534300099993],[-74.76068879899992,-43.67435438199993],[-74.7622120069999,-43.67511990199995],[-74.76470597199994,-43.67946087999991],[-74.76708820399995,-43.67883444499995],[-74.76608345199992,-43.6797614969999],[-74.76731033199991,-43.68081221999995],[-74.76775779499991,-43.679693441999916],[-74.77092552599993,-43.67966409899992],[-74.7684431639999,-43.67645488099993],[-74.77069081699995,-43.6766499979999],[-74.77127390899994,-43.67436413999991],[-74.77252612399991,-43.67739218299994],[-74.77237240799991,-43.67464029899992],[-74.7739262689999,-43.676025126999946],[-74.77353700799995,-43.67479746399994],[-74.77534542699993,-43.6739433969999],[-74.77457014899994,-43.67500200199993],[-74.77776917699993,-43.675317967999945],[-74.77690410499991,-43.67404174199993],[-74.7776788459999,-43.67311414699992],[-74.78066262999994,-43.673929899999905],[-74.77727241199995,-43.6720770469999],[-74.77840617299995,-43.67168616799995],[-74.77724756599991,-43.66992099799995],[-74.77928586799993,-43.66897202399991],[-74.78220283899992,-43.67006157499992],[-74.78112450999993,-43.66876114999991],[-74.7819802169999,-43.66809573599994],[-74.77934386599992,-43.666577902999904],[-74.78557503299993,-43.66315921699993],[-74.78459362299992,-43.66229973499992],[-74.78545390699992,-43.66031211099994],[-74.78327775399993,-43.658640378999905],[-74.78418221299995,-43.65805842099991],[-74.78334856399994,-43.657199205999916],[-74.7860958569999,-43.655107932999954],[-74.78597121099995,-43.65324948399996],[-74.78808631299995,-43.65358694999992],[-74.7869570819999,-43.65281059499995],[-74.78853255799993,-43.65264675699996],[-74.78778258099993,-43.65132317599995],[-74.79350909699991,-43.64825637899992],[-74.7937805649999,-43.645624393999924],[-74.79840008999992,-43.642571337999925],[-74.79263799799992,-43.643978517999926],[-74.79669689899993,-43.641782150999916],[-74.79666975899994,-43.640102558999956],[-74.80009632399992,-43.64052551099991],[-74.80088596899992,-43.63981218799995],[-74.7999699689999,-43.639060153999935],[-74.80111743799995,-43.63925274299993],[-74.80023460099994,-43.63839356299991],[-74.8015495599999,-43.63752630199991],[-74.80587998999994,-43.637355061999926],[-74.80303642299992,-43.63422933999993],[-74.80739971699995,-43.63396280499995],[-74.80757169899994,-43.63146164199992],[-74.81074942899994,-43.63265811499991],[-74.80949372899994,-43.630416631999935],[-74.81203851299995,-43.62947982199995],[-74.8111930469999,-43.62715564799993],[-74.81666239299994,-43.62428191999993],[-74.81655043699993,-43.62335262699992],[-74.81456620299991,-43.62340898499991],[-74.81103637899992,-43.624820696999905],[-74.81458351499992,-43.62311121999994],[-74.81139238299994,-43.621092921999946],[-74.81414640899993,-43.62128801999995],[-74.81387479499995,-43.618976705999955],[-74.81744708999992,-43.61964952199992],[-74.81626998099995,-43.61852793599991],[-74.81817544799992,-43.617351722999956],[-74.81585008799993,-43.61643079899994],[-74.81778591199992,-43.616040813999916],[-74.81538253299993,-43.61384520099995],[-74.8128907489999,-43.613781590999906],[-74.81396459599995,-43.612954627999954],[-74.81265656599993,-43.611820878999936],[-74.81454549799992,-43.61064469799993],[-74.81781419999993,-43.613973324999904],[-74.82017331599991,-43.614548821999904],[-74.82022888599994,-43.61240479999992],[-74.81813305499992,-43.61153192899991],[-74.82075841599993,-43.61074990199995],[-74.81827084199995,-43.60932847899994],[-74.82088264599992,-43.607557751999934],[-74.8172635439999,-43.60632511599994],[-74.81805713299991,-43.60408697399993],[-74.81722251699995,-43.60363299599993],[-74.82033773299992,-43.603375875999916],[-74.81899629199995,-43.60248037999992],[-74.82047283399993,-43.60204197299993],[-74.82006581999991,-43.60111221699992],[-74.82132676999993,-43.60150728199994],[-74.81954450899991,-43.60003933799993],[-74.82312024999993,-43.59917536799992],[-74.82071430299993,-43.598004267999954],[-74.82173106099992,-43.597815269999955],[-74.82086556099995,-43.596741858999906],[-74.82221237399995,-43.59577910899992],[-74.82128006799991,-43.59513441999991],[-74.82361839999993,-43.59136202199994],[-74.82923650499993,-43.59247834599995],[-74.83002413699995,-43.59213407899995],[-74.82756927399993,-43.59092731399994],[-74.83058325499991,-43.59145593899996],[-74.82776780099994,-43.59027246599993],[-74.82888374799995,-43.589726200999905],[-74.82631453099992,-43.58843585499994],[-74.82766090199993,-43.58753259699995],[-74.8259063509999,-43.58791111499994],[-74.8251419309999,-43.585908769999946],[-74.83071316599995,-43.586036272999934],[-74.8315392909999,-43.58360748899992],[-74.8263003209999,-43.58197964699991],[-74.82216623699992,-43.58361711799995],[-74.82198974199991,-43.582342281999956],[-74.8242531219999,-43.5816191639999],[-74.82296182099992,-43.580533199999934],[-74.8254012989999,-43.581215922999945],[-74.82663217399994,-43.580538823999916],[-74.82584704299995,-43.58006115899991],[-74.82717367999993,-43.58026567199994],[-74.82325065299995,-43.577019666999945],[-74.8261821179999,-43.57750063199995],[-74.8241038299999,-43.57661598099992],[-74.8261192189999,-43.5765833289999],[-74.82582766399992,-43.57541552899994],[-74.82782465899993,-43.57607370199992],[-74.82641923699993,-43.574808925999946],[-74.8274218219999,-43.5737026459999],[-74.83343373699995,-43.57403318199994],[-74.83214229999993,-43.57299496499991],[-74.8338966739999,-43.572509142999934],[-74.83113314799994,-43.57062302899993],[-74.82718686399994,-43.569926247999945],[-74.83016850299992,-43.56993071599993],[-74.8291576279999,-43.568213907999905],[-74.8330395779999,-43.568445966999946],[-74.83176588599991,-43.566227012999946],[-74.83381125699992,-43.567078720999916],[-74.83365370699994,-43.56480035599992],[-74.83512907499994,-43.56441535899995],[-74.8343136499999,-43.56308898899994],[-74.83773541699992,-43.562245178999945],[-74.8337428609999,-43.56216499399994],[-74.82673041299995,-43.5655643419999],[-74.82090158099993,-43.563172994999945],[-74.81226200099991,-43.569338391999906],[-74.8085008299999,-43.56718802699993],[-74.80015247699993,-43.56523806799993],[-74.79717042099992,-43.569089266999924],[-74.79355800899992,-43.571509832999936],[-74.79235119299994,-43.57109073399994],[-74.78981973899994,-43.57470431999991],[-74.78647452399991,-43.57667845799995],[-74.7851942019999,-43.573876785999914],[-74.78211727299993,-43.575255710999954],[-74.78113876099991,-43.57400310199995],[-74.77974039499992,-43.57557873099995],[-74.77905114599992,-43.57364173399992],[-74.7737608079999,-43.575403266999956],[-74.77032932199995,-43.572984284999905],[-74.76817900099991,-43.57297994499993],[-74.76871938099993,-43.57091136299994],[-74.76566709699995,-43.57115827399991],[-74.7629898859999,-43.56975311699995],[-74.75914259599995,-43.56395295599992],[-74.75733638999992,-43.56502119999993],[-74.75782096599994,-43.56673455199996],[-74.7503810099999,-43.56339812999994],[-74.74937324199993,-43.56446798999991],[-74.75082196799991,-43.56570700799995],[-74.74639680299993,-43.56621841999993],[-74.74484860199993,-43.564309083999945],[-74.74742063999992,-43.56132194799994],[-74.74389782299994,-43.56156723799995],[-74.7434742829999,-43.560047529999906],[-74.74642796699993,-43.5587884869999],[-74.74810382899994,-43.55952179199994],[-74.74805127799993,-43.55739243499994],[-74.75001757599995,-43.557203183999945],[-74.7508537089999,-43.55303586399992],[-74.75014246299992,-43.55175378799993],[-74.74762191699995,-43.55234384499994],[-74.74314577299992,-43.550621547999924],[-74.74661059599993,-43.54940831499994],[-74.75000543499993,-43.55023472799991],[-74.75059453999995,-43.546379551999905],[-74.74878011099992,-43.54458879999993],[-74.74624256699991,-43.54441940699991],[-74.74964236099993,-43.54398020799994],[-74.7500220689999,-43.54125619899992],[-74.74759458099993,-43.53927051699992],[-74.74856776599995,-43.53657759799995],[-74.74539992699994,-43.530629534999946],[-74.74676038899992,-43.52829484699993],[-74.74518578199991,-43.52802333099993],[-74.74473996899991,-43.5269800449999],[-74.74586721999992,-43.526565639999944],[-74.74392847799993,-43.52531056499993],[-74.74524870399995,-43.52279712399991],[-74.74347366299992,-43.52157218399992],[-74.74485219699994,-43.51977359099993],[-74.74329922899994,-43.51927874899991],[-74.74477600099993,-43.518433330999926],[-74.74338933999991,-43.51732837399993]]]]}}]}