{"type":"FeatureCollection","features":[{"type":"Feature","properties":{"nombre":"Quellón - Yaldad","jerarquia":5},"geometry":{"type":"LineString","coordinates":[[-73.6397,-43.11994],[-73.63999,-43.11992]]}},{"type":"Feature","properties":{"nombre":"Agustín Gómez García","jerarquia":2},"geometry":{"type":"LineString","coordinates":[[-73.62115,-43.11741],[-73.6208,-43.11837],[-73.62106,-43.11917]]}},{"type":"Feature","properties":{"nombre":"Ruta W-875","jerarquia":5},"geometry":{"type":"LineString","coordinates":[[-73.56081,-43.06379],[-73.56051,-43.06391],[-73.56025,-43.06395],[-73.55914,-43.06395],[-73.55885,-43.06399],[-73.55826,-43.06425],[-73.55771,-43.0644],[-73.55695,-43.06448],[-73.55662,-43.06456],[-73.55628,-43.06471],[-73.55456,-43.06579]]}},{"type":"Feature","properties":{"nombre":"Ruta W-875","jerarquia":5},"geometry":{"type":"LineString","coordinates":[[-73.55456,-43.06579],[-73.5536,-43.06639],[-73.55259,-43.06721],[-73.55168,-43.06765],[-73.55091,-43.06783],[-73.55038,-43.06818],[-73.55005,-43.0683],[-73.54923,-43.06826],[-73.54883,-43.06836],[-73.54875,-43.06856],[-73.54878,-43.06909]]}},{"type":"Feature","properties":{"nombre":"Juan Ladrillero","jerarquia":4},"geometry":{"type":"LineString","coordinates":[[-73.63201,-43.11649],[-73.63253,-43.11649]]}},{"type":"Feature","properties":{"nombre":"San Antonio","jerarquia":5},"geometry":{"type":"LineString","coordinates":[[-73.60474,-43.1163],[-73.60427,-43.11652]]}},{"type":"Feature","properties":{"nombre":"San Antonio","jerarquia":5},"geometry":{"type":"LineString","coordinates":[[-73.60427,-43.11652],[-73.60408,-43.11662]]}},{"type":"Feature","properties":{"nombre":"San Antonio","jerarquia":5},"geometry":{"type":"LineString","coordinates":[[-73.60408,-43.11662],[-73.60224,-43.11754]]}},{"type":"Feature","properties":{"nombre":"Ruta W-872","jerarquia":5},"geometry":{"type":"LineString","coordinates":[[-73.69271,-43.14691],[-73.69241,-43.14686],[-73.6922,-43.14677],[-73.69098,-43.14592],[-73.68996,-43.14554],[-73.6897,-43.14539],[-73.68873,-43.14446],[-73.68777,-43.14375],[-73.6864,-43.14238],[-73.68488,-43.14155]]}},{"type":"Feature","properties":{"nombre":"Ruta W-872","jerarquia":5},"geometry":{"type":"LineString","coordinates":[[-73.68488,-43.14155],[-73.6843,-43.1415],[-73.68411,-43.14152],[-73.68154,-43.14207],[-73.68046,-43.14216],[-73.68023,-43.14212],[-73.67719,-43.14095],[-73.67667,-43.14122],[-73.67648,-43.14127],[-73.67628,-43.14126],[-73.67528,-43.14099],[-73.67417,-43.14051],[-73.67258,-43.1404],[-73.67176,-43.14016],[-73.66916,-43.13975],[-73.66867,-43.13946],[-73.66621,-43.13851],[-73.66606,-43.13835],[-73.66598,-43.13792],[-73.66576,-43.13764],[-73.66539,-43.13742],[-73.66486,-43.13728],[-73.66446,-43.13728],[-73.66361,-43.13749],[-73.66349,-43.13749],[-73.66299,-43.1373],[-73.66268,-43.13731],[-73.66222,-43.13756],[-73.6616,-43.13781],[-73.65872,-43.13747],[-73.65796,-43.13744],[-73.6546,-43.1375],[-73.6543,-43.13741],[-73.6534,-43.1366],[-73.65314,-43.13652],[-73.65273,-43.1365],[-73.65254,-43.13654],[-73.65239,-43.1367],[-73.65231,-43.13687],[-73.65227,-43.13743],[-73.65211,-43.13754],[-73.65144,-43.1376],[-73.6495,-43.13751],[-73.64831,-43.13763],[-73.6471,-43.13813],[-73.64663,-43.13823],[-73.64619,-43.13825],[-73.64602,-43.13817],[-73.64574,-43.13741],[-73.64565,-43.13731],[-73.6454,-43.1373],[-73.64449,-43.13742],[-73.64374,-43.13759],[-73.64361,-43.13757],[-73.64349,-43.13749],[-73.64346,-43.13741]]}},{"type":"Feature","properties":{"nombre":"Jorge Vivar","jerarquia":5},"geometry":{"type":"LineString","coordinates":[[-73.61566,-43.12075],[-73.61566,-43.12055],[-73.61586,-43.12043],[-73.61698,-43.12037]]}},{"type":"Feature","properties":{"nombre":"Jorge Vivar","jerarquia":5},"geometry":{"type":"LineString","coordinates":[[-73.61698,-43.12037],[-73.61824,-43.12036]]}},{"type":"Feature","properties":{"nombre":"Galvarino Riveros","jerarquia":5},"geometry":{"type":"LineString","coordinates":[[-73.61351,-43.11249],[-73.61334,-43.11284]]}},{"type":"Feature","properties":{"nombre":"Pedro Aguirre Cerda","jerarquia":2},"geometry":{"type":"LineString","coordinates":[[-73.62262,-43.1205],[-73.62206,-43.11992],[-73.62202,-43.11978],[-73.62199,-43.11964],[-73.62222,-43.11895]]}},{"type":"Feature","properties":{"nombre":"","jerarquia":5},"geometry":{"type":"LineString","coordinates":[[-73.59422,-43.11804],[-73.59447,-43.11914]]}},{"type":"Feature","properties":{"nombre":"","jerarquia":5},"geometry":{"type":"LineString","coordinates":[[-73.59447,-43.11914],[-73.59461,-43.12005]]}},{"type":"Feature","properties":{"nombre":"Independencia","jerarquia":5},"geometry":{"type":"LineString","coordinates":[[-73.60935,-43.12112],[-73.6095,-43.11984]]}},{"type":"Feature","properties":{"nombre":"Independencia","jerarquia":5},"geometry":{"type":"LineString","coordinates":[[-73.6095,-43.11984],[-73.60958,-43.11951],[-73.60959,-43.11908]]}},{"type":"Feature","properties":{"nombre":"Independencia","jerarquia":5},"geometry":{"type":"LineString","coordinates":[[-73.60959,-43.11908],[-73.60958,-43.11793]]}},{"type":"Feature","properties":{"nombre":"Independencia","jerarquia":5},"geometry":{"type":"LineString","coordinates":[[-73.60958,-43.11793],[-73.60958,-43.11784]]}},{"type":"Feature","properties":{"nombre":"Avenida La Paz","jerarquia":5},"geometry":{"type":"LineString","coordinates":[[-73.62042,-43.11113],[-73.62029,-43.11146]]}},{"type":"Feature","properties":{"nombre":"Avenida La Paz","jerarquia":5},"geometry":{"type":"LineString","coordinates":[[-73.62029,-43.11146],[-73.62027,-43.11183]]}},{"type":"Feature","properties":{"nombre":"Avenida La Paz","jerarquia":5},"geometry":{"type":"LineString","coordinates":[[-73.62027,-43.11183],[-73.62019,-43.11253]]}},{"type":"Feature","properties":{"nombre":"Avenida La Paz","jerarquia":5},"geometry":{"type":"LineString","coordinates":[[-73.62019,-43.11253],[-73.62021,-43.11292]]}},{"type":"Feature","properties":{"nombre":"Avenida La Paz","jerarquia":5},"geometry":{"type":"LineString","coordinates":[[-73.62021,-43.11292],[-73.62012,-43.11351]]}},{"type":"Feature","properties":{"nombre":"Avenida La Paz","jerarquia":5},"geometry":{"type":"LineString","coordinates":[[-73.62012,-43.11351],[-73.62009,-43.11413]]}},{"type":"Feature","properties":{"nombre":"Avenida La Paz","jerarquia":5},"geometry":{"type":"LineString","coordinates":[[-73.62009,-43.11413],[-73.62001,-43.11473]]}},{"type":"Feature","properties":{"nombre":"Avenida La Paz","jerarquia":5},"geometry":{"type":"LineString","coordinates":[[-73.62001,-43.11473],[-73.61991,-43.11542]]}},{"type":"Feature","properties":{"nombre":"Independencia","jerarquia":5},"geometry":{"type":"LineString","coordinates":[[-73.60958,-43.11784],[-73.60957,-43.11775]]}},{"type":"Feature","properties":{"nombre":"Independencia","jerarquia":5},"geometry":{"type":"LineString","coordinates":[[-73.60957,-43.11775],[-73.60954,-43.11743]]}},{"type":"Feature","properties":{"nombre":"Independencia","jerarquia":5},"geometry":{"type":"LineString","coordinates":[[-73.60954,-43.11743],[-73.6094,-43.11713],[-73.60823,-43.11581]]}},{"type":"Feature","properties":{"nombre":"Independencia","jerarquia":5},"geometry":{"type":"LineString","coordinates":[[-73.60823,-43.11581],[-73.60792,-43.11561],[-73.60689,-43.11521],[-73.60681,-43.1151],[-73.60724,-43.11436],[-73.6073,-43.11365]]}},{"type":"Feature","properties":{"nombre":"Juan Ladrillero","jerarquia":4},"geometry":{"type":"LineString","coordinates":[[-73.61696,-43.13846],[-73.61742,-43.13824]]}},{"type":"Feature","properties":{"nombre":"Juan Ladrillero","jerarquia":4},"geometry":{"type":"LineString","coordinates":[[-73.61742,-43.13824],[-73.61777,-43.13808]]}},{"type":"Feature","properties":{"nombre":"Juan Ladrillero","jerarquia":4},"geometry":{"type":"LineString","coordinates":[[-73.61777,-43.13808],[-73.62001,-43.13708],[-73.62072,-43.13665],[-73.62214,-43.1356],[-73.6235,-43.1344],[-73.62417,-43.13376],[-73.6248,-43.13303],[-73.6255,-43.13256],[-73.62582,-43.13214]]}},{"type":"Feature","properties":{"nombre":"Juan Ladrillero","jerarquia":4},"geometry":{"type":"LineString","coordinates":[[-73.62582,-43.13214],[-73.62615,-43.13182],[-73.62635,-43.1317],[-73.62713,-43.13145]]}},{"type":"Feature","properties":{"nombre":"Juan Ladrillero","jerarquia":4},"geometry":{"type":"LineString","coordinates":[[-73.62713,-43.13145],[-73.62795,-43.13128],[-73.62852,-43.1313]]}},{"type":"Feature","properties":{"nombre":"Juan Ladrillero","jerarquia":4},"geometry":{"type":"LineString","coordinates":[[-73.62852,-43.1313],[-73.62879,-43.13138]]}},{"type":"Feature","properties":{"nombre":"Juan Ladrillero","jerarquia":4},"geometry":{"type":"LineString","coordinates":[[-73.62879,-43.13138],[-73.63008,-43.1319],[-73.63049,-43.13202]]}},{"type":"Feature","properties":{"nombre":"Juan Ladrillero","jerarquia":4},"geometry":{"type":"LineString","coordinates":[[-73.63049,-43.13202],[-73.63186,-43.13235],[-73.6339,-43.13203]]}},{"type":"Feature","properties":{"nombre":"Juan Ladrillero","jerarquia":4},"geometry":{"type":"LineString","coordinates":[[-73.6339,-43.13203],[-73.634,-43.13201]]}},{"type":"Feature","properties":{"nombre":"Juan Ladrillero","jerarquia":4},"geometry":{"type":"LineString","coordinates":[[-73.634,-43.13201],[-73.63485,-43.13179]]}},{"type":"Feature","properties":{"nombre":"Juan Ladrillero","jerarquia":4},"geometry":{"type":"LineString","coordinates":[[-73.63485,-43.13179],[-73.63616,-43.13149]]}},{"type":"Feature","properties":{"nombre":"Juan Ladrillero","jerarquia":4},"geometry":{"type":"LineString","coordinates":[[-73.63616,-43.13149],[-73.6367,-43.13137]]}},{"type":"Feature","properties":{"nombre":"Juan Ladrillero","jerarquia":4},"geometry":{"type":"LineString","coordinates":[[-73.6367,-43.13137],[-73.63979,-43.13066]]}},{"type":"Feature","properties":{"nombre":"Juan Ladrillero","jerarquia":4},"geometry":{"type":"LineString","coordinates":[[-73.63979,-43.13066],[-73.64105,-43.13036]]}},{"type":"Feature","properties":{"nombre":"Juan Ladrillero","jerarquia":4},"geometry":{"type":"LineString","coordinates":[[-73.64105,-43.13036],[-73.64256,-43.13003],[-73.643,-43.12982]]}},{"type":"Feature","properties":{"nombre":"Juan Ladrillero","jerarquia":4},"geometry":{"type":"LineString","coordinates":[[-73.643,-43.12982],[-73.64324,-43.12962],[-73.64341,-43.12938]]}},{"type":"Feature","properties":{"nombre":"Juan Ladrillero","jerarquia":4},"geometry":{"type":"LineString","coordinates":[[-73.64341,-43.12938],[-73.6434,-43.12782]]}},{"type":"Feature","properties":{"nombre":"Juan Ladrillero","jerarquia":4},"geometry":{"type":"LineString","coordinates":[[-73.6434,-43.12782],[-73.64338,-43.12748]]}},{"type":"Feature","properties":{"nombre":"Juan Ladrillero","jerarquia":4},"geometry":{"type":"LineString","coordinates":[[-73.64338,-43.12748],[-73.64339,-43.12727]]}},{"type":"Feature","properties":{"nombre":"Juan Ladrillero","jerarquia":4},"geometry":{"type":"LineString","coordinates":[[-73.64339,-43.12727],[-73.64335,-43.12571]]}},{"type":"Feature","properties":{"nombre":"Juan Ladrillero","jerarquia":4},"geometry":{"type":"LineString","coordinates":[[-73.64335,-43.12571],[-73.64335,-43.12552]]}},{"type":"Feature","properties":{"nombre":"Juan Ladrillero","jerarquia":4},"geometry":{"type":"LineString","coordinates":[[-73.64335,-43.12552],[-73.64335,-43.12494],[-73.64317,-43.1239]]}},{"type":"Feature","properties":{"nombre":"Juan Ladrillero","jerarquia":4},"geometry":{"type":"LineString","coordinates":[[-73.64317,-43.1239],[-73.64296,-43.1233]]}},{"type":"Feature","properties":{"nombre":"Juan Ladrillero","jerarquia":4},"geometry":{"type":"LineString","coordinates":[[-73.64296,-43.1233],[-73.64292,-43.12322]]}},{"type":"Feature","properties":{"nombre":"Juan Ladrillero","jerarquia":4},"geometry":{"type":"LineString","coordinates":[[-73.64292,-43.12322],[-73.64283,-43.12302]]}},{"type":"Feature","properties":{"nombre":"Juan Ladrillero","jerarquia":4},"geometry":{"type":"LineString","coordinates":[[-73.64283,-43.12302],[-73.64247,-43.12242],[-73.64202,-43.12186],[-73.64108,-43.12102]]}},{"type":"Feature","properties":{"nombre":"Juan Ladrillero","jerarquia":4},"geometry":{"type":"LineString","coordinates":[[-73.64108,-43.12102],[-73.63988,-43.12009]]}},{"type":"Feature","properties":{"nombre":"Juan Ladrillero","jerarquia":4},"geometry":{"type":"LineString","coordinates":[[-73.63988,-43.12009],[-73.6397,-43.11994]]}},{"type":"Feature","properties":{"nombre":"Juan Ladrillero","jerarquia":4},"geometry":{"type":"LineString","coordinates":[[-73.6397,-43.11994],[-73.63908,-43.11938]]}},{"type":"Feature","properties":{"nombre":"Juan Ladrillero","jerarquia":4},"geometry":{"type":"LineString","coordinates":[[-73.63908,-43.11938],[-73.63803,-43.11878],[-73.63668,-43.11818]]}},{"type":"Feature","properties":{"nombre":"Juan Ladrillero","jerarquia":4},"geometry":{"type":"LineString","coordinates":[[-73.63668,-43.11818],[-73.63658,-43.11813]]}},{"type":"Feature","properties":{"nombre":"Juan Ladrillero","jerarquia":4},"geometry":{"type":"LineString","coordinates":[[-73.63658,-43.11813],[-73.63637,-43.11804]]}},{"type":"Feature","properties":{"nombre":"Juan Ladrillero","jerarquia":4},"geometry":{"type":"LineString","coordinates":[[-73.63637,-43.11804],[-73.63559,-43.11767]]}},{"type":"Feature","properties":{"nombre":"Juan Ladrillero","jerarquia":4},"geometry":{"type":"LineString","coordinates":[[-73.63559,-43.11767],[-73.63315,-43.11654],[-73.63286,-43.11649]]}},{"type":"Feature","properties":{"nombre":"Juan Ladrillero","jerarquia":4},"geometry":{"type":"LineString","coordinates":[[-73.63286,-43.11649],[-73.63253,-43.11649]]}},{"type":"Feature","properties":{"nombre":"Ruta W-872","jerarquia":5},"geometry":{"type":"LineString","coordinates":[[-73.64343,-43.13002],[-73.643,-43.12982]]}},{"type":"Feature","properties":{"nombre":"","jerarquia":5},"geometry":{"type":"LineString","coordinates":[[-73.6339,-43.13203],[-73.63365,-43.13222]]}},{"type":"Feature","properties":{"nombre":"","jerarquia":5},"geometry":{"type":"LineString","coordinates":[[-73.63365,-43.13222],[-73.63351,-43.13243],[-73.63347,-43.13258]]}},{"type":"Feature","properties":{"nombre":"","jerarquia":5},"geometry":{"type":"LineString","coordinates":[[-73.63347,-43.13258],[-73.63347,-43.13276],[-73.63381,-43.13347]]}},{"type":"Feature","properties":{"nombre":"Ruta W-875","jerarquia":5},"geometry":{"type":"LineString","coordinates":[[-73.54878,-43.06909],[-73.549,-43.07037],[-73.54899,-43.07061],[-73.54887,-43.07095],[-73.54854,-43.07121],[-73.5467,-43.07187],[-73.54657,-43.07198],[-73.54638,-43.07255],[-73.5463,-43.07345],[-73.54644,-43.07397],[-73.5465,-43.07448],[-73.54649,-43.07497],[-73.54625,-43.07569],[-73.54618,-43.07627],[-73.54634,-43.07762],[-73.54669,-43.07868],[-73.54672,-43.07898],[-73.54666,-43.07913],[-73.54538,-43.08082],[-73.54526,-43.08104],[-73.54509,-43.08161],[-73.545,-43.08175],[-73.54421,-43.0823],[-73.54361,-43.08302],[-73.54327,-43.08361],[-73.54233,-43.08445],[-73.54215,-43.0847],[-73.54197,-43.0852],[-73.54199,-43.08603],[-73.54185,-43.0865],[-73.54174,-43.08661],[-73.53989,-43.08746],[-73.53947,-43.08791],[-73.5392,-43.08833],[-73.53922,-43.08869],[-73.53939,-43.08906],[-73.53943,-43.08935],[-73.53937,-43.08974],[-73.53927,-43.09012],[-73.53902,-43.09062],[-73.53852,-43.0911],[-73.53834,-43.09138],[-73.53824,-43.09171],[-73.53827,-43.09196],[-73.53838,-43.09208],[-73.53914,-43.09248],[-73.54092,-43.0932],[-73.54123,-43.09346],[-73.54202,-43.09475],[-73.5421,-43.09496],[-73.54217,-43.09672],[-73.54207,-43.09705],[-73.54158,-43.09768],[-73.54019,-43.10004],[-73.53956,-43.10152]]}},{"type":"Feature","properties":{"nombre":"Juan Ladrillero","jerarquia":2},"geometry":{"type":"LineString","coordinates":[[-73.6146,-43.11761],[-73.61683,-43.11752]]}},{"type":"Feature","properties":{"nombre":"Juan Ladrillero","jerarquia":2},"geometry":{"type":"LineString","coordinates":[[-73.61683,-43.11752],[-73.6169,-43.11751]]}},{"type":"Feature","properties":{"nombre":"Galvarino Riveros","jerarquia":5},"geometry":{"type":"LineString","coordinates":[[-73.61351,-43.11249],[-73.61361,-43.11236],[-73.61385,-43.11228]]}},{"type":"Feature","properties":{"nombre":"Galvarino Riveros","jerarquia":5},"geometry":{"type":"LineString","coordinates":[[-73.61385,-43.11228],[-73.61435,-43.11224],[-73.61502,-43.11229],[-73.61617,-43.11253],[-73.61707,-43.11285],[-73.61719,-43.11284],[-73.61725,-43.11276]]}},{"type":"Feature","properties":{"nombre":"Avenida La Paz","jerarquia":5},"geometry":{"type":"LineString","coordinates":[[-73.61991,-43.11542],[-73.61977,-43.1164]]}},{"type":"Feature","properties":{"nombre":"Avenida La Paz","jerarquia":5},"geometry":{"type":"LineString","coordinates":[[-73.61977,-43.1164],[-73.61974,-43.11657]]}},{"type":"Feature","properties":{"nombre":"Avenida La Paz","jerarquia":5},"geometry":{"type":"LineString","coordinates":[[-73.61974,-43.11657],[-73.61963,-43.11734]]}},{"type":"Feature","properties":{"nombre":"Avenida La Paz","jerarquia":5},"geometry":{"type":"LineString","coordinates":[[-73.61963,-43.11734],[-73.61962,-43.11742]]}},{"type":"Feature","properties":{"nombre":"Avenida La Paz","jerarquia":5},"geometry":{"type":"LineString","coordinates":[[-73.61963,-43.11921],[-73.61956,-43.11755]]}},{"type":"Feature","properties":{"nombre":"Avenida La Paz","jerarquia":5},"geometry":{"type":"LineString","coordinates":[[-73.61956,-43.11755],[-73.61956,-43.11747]]}},{"type":"Feature","properties":{"nombre":"Costanera Pedro Montt","jerarquia":5},"geometry":{"type":"LineString","coordinates":[[-73.60815,-43.12067],[-73.60825,-43.1207]]}},{"type":"Feature","properties":{"nombre":"Costanera Pedro Montt","jerarquia":5},"geometry":{"type":"LineString","coordinates":[[-73.60825,-43.1207],[-73.60848,-43.12094],[-73.60866,-43.12103],[-73.609,-43.12112],[-73.60935,-43.12112]]}},{"type":"Feature","properties":{"nombre":"Costanera Pedro Montt","jerarquia":5},"geometry":{"type":"LineString","coordinates":[[-73.60935,-43.12112],[-73.61021,-43.12109],[-73.61059,-43.12101]]}},{"type":"Feature","properties":{"nombre":"Costanera Pedro Montt","jerarquia":5},"geometry":{"type":"LineString","coordinates":[[-73.61059,-43.12101],[-73.61121,-43.12087],[-73.61192,-43.12083]]}},{"type":"Feature","properties":{"nombre":"Costanera Pedro Montt","jerarquia":5},"geometry":{"type":"LineString","coordinates":[[-73.61192,-43.12083],[-73.61256,-43.12079],[-73.61316,-43.12084]]}},{"type":"Feature","properties":{"nombre":"Costanera Pedro Montt","jerarquia":5},"geometry":{"type":"LineString","coordinates":[[-73.61316,-43.12084],[-73.61447,-43.12088]]}},{"type":"Feature","properties":{"nombre":"Costanera Pedro Montt","jerarquia":5},"geometry":{"type":"LineString","coordinates":[[-73.61447,-43.12088],[-73.61566,-43.12075]]}},{"type":"Feature","properties":{"nombre":"Costanera Pedro Montt","jerarquia":5},"geometry":{"type":"LineString","coordinates":[[-73.61566,-43.12075],[-73.61731,-43.12071],[-73.62149,-43.12088]]}},{"type":"Feature","properties":{"nombre":"Ruta W-872","jerarquia":5},"geometry":{"type":"LineString","coordinates":[[-73.64346,-43.13741],[-73.64343,-43.13002]]}},{"type":"Feature","properties":{"nombre":"Jorge Vivar","jerarquia":5},"geometry":{"type":"LineString","coordinates":[[-73.61824,-43.12036],[-73.61961,-43.1203]]}},{"type":"Feature","properties":{"nombre":"Independencia","jerarquia":5},"geometry":{"type":"LineString","coordinates":[[-73.60954,-43.11743],[-73.60972,-43.11761],[-73.60994,-43.11775]]}},{"type":"Feature","properties":{"nombre":"Independencia","jerarquia":5},"geometry":{"type":"LineString","coordinates":[[-73.60994,-43.11775],[-73.61009,-43.11779]]}},{"type":"Feature","properties":{"nombre":"San Antonio","jerarquia":5},"geometry":{"type":"LineString","coordinates":[[-73.60224,-43.11754],[-73.6021,-43.11756]]}},{"type":"Feature","properties":{"nombre":"San Antonio","jerarquia":5},"geometry":{"type":"LineString","coordinates":[[-73.6021,-43.11756],[-73.6017,-43.11757],[-73.60126,-43.11753]]}},{"type":"Feature","properties":{"nombre":"San Antonio","jerarquia":5},"geometry":{"type":"LineString","coordinates":[[-73.60126,-43.11753],[-73.60048,-43.1174]]}},{"type":"Feature","properties":{"nombre":"San Antonio","jerarquia":5},"geometry":{"type":"LineString","coordinates":[[-73.60048,-43.1174],[-73.59948,-43.11746]]}},{"type":"Feature","properties":{"nombre":"San Antonio","jerarquia":5},"geometry":{"type":"LineString","coordinates":[[-73.59948,-43.11746],[-73.59771,-43.11759]]}},{"type":"Feature","properties":{"nombre":"San Antonio","jerarquia":5},"geometry":{"type":"LineString","coordinates":[[-73.59771,-43.11759],[-73.59705,-43.11767]]}},{"type":"Feature","properties":{"nombre":"San Antonio","jerarquia":5},"geometry":{"type":"LineString","coordinates":[[-73.59705,-43.11767],[-73.59671,-43.11771]]}},{"type":"Feature","properties":{"nombre":"San Antonio","jerarquia":5},"geometry":{"type":"LineString","coordinates":[[-73.59671,-43.11771],[-73.59649,-43.11774]]}},{"type":"Feature","properties":{"nombre":"San Antonio","jerarquia":5},"geometry":{"type":"LineString","coordinates":[[-73.59649,-43.11774],[-73.59422,-43.11804]]}},{"type":"Feature","properties":{"nombre":"San Antonio","jerarquia":5},"geometry":{"type":"LineString","coordinates":[[-73.59422,-43.11804],[-73.59348,-43.11811]]}},{"type":"Feature","properties":{"nombre":"San Antonio","jerarquia":5},"geometry":{"type":"LineString","coordinates":[[-73.59348,-43.11811],[-73.59338,-43.11812]]}},{"type":"Feature","properties":{"nombre":"Ruta 5 Sur","jerarquia":2},"geometry":{"type":"LineString","coordinates":[[-73.61864,-43.08693],[-73.61849,-43.08797]]}},{"type":"Feature","properties":{"nombre":"Ruta 5 Sur","jerarquia":2},"geometry":{"type":"LineString","coordinates":[[-73.61849,-43.08797],[-73.61832,-43.08844],[-73.61811,-43.08877],[-73.61783,-43.08906],[-73.61744,-43.08935]]}},{"type":"Feature","properties":{"nombre":"Ruta 5 Sur","jerarquia":2},"geometry":{"type":"LineString","coordinates":[[-73.61744,-43.08935],[-73.61247,-43.09216],[-73.61217,-43.09246],[-73.61191,-43.09291],[-73.61185,-43.09326],[-73.61188,-43.09367]]}},{"type":"Feature","properties":{"nombre":"Progreso","jerarquia":5},"geometry":{"type":"LineString","coordinates":[[-73.61725,-43.11276],[-73.61731,-43.11265]]}},{"type":"Feature","properties":{"nombre":"Progreso","jerarquia":5},"geometry":{"type":"LineString","coordinates":[[-73.61731,-43.11265],[-73.61736,-43.11253]]}},{"type":"Feature","properties":{"nombre":"Progreso","jerarquia":5},"geometry":{"type":"LineString","coordinates":[[-73.61736,-43.11253],[-73.61739,-43.11244]]}},{"type":"Feature","properties":{"nombre":"Progreso","jerarquia":5},"geometry":{"type":"LineString","coordinates":[[-73.61739,-43.11244],[-73.61762,-43.11207]]}},{"type":"Feature","properties":{"nombre":"Progreso","jerarquia":5},"geometry":{"type":"LineString","coordinates":[[-73.61762,-43.11207],[-73.61782,-43.11171]]}},{"type":"Feature","properties":{"nombre":"Progreso","jerarquia":5},"geometry":{"type":"LineString","coordinates":[[-73.61782,-43.11171],[-73.61804,-43.11123]]}},{"type":"Feature","properties":{"nombre":"Progreso","jerarquia":5},"geometry":{"type":"LineString","coordinates":[[-73.61804,-43.11123],[-73.6182,-43.11084]]}},{"type":"Feature","properties":{"nombre":"Progreso","jerarquia":5},"geometry":{"type":"LineString","coordinates":[[-73.6182,-43.11084],[-73.61832,-43.11046]]}},{"type":"Feature","properties":{"nombre":"Progreso","jerarquia":5},"geometry":{"type":"LineString","coordinates":[[-73.61832,-43.11046],[-73.61844,-43.11009]]}},{"type":"Feature","properties":{"nombre":"Progreso","jerarquia":5},"geometry":{"type":"LineString","coordinates":[[-73.61844,-43.11009],[-73.61852,-43.11001]]}},{"type":"Feature","properties":{"nombre":"Ruta W-881","jerarquia":5},"geometry":{"type":"LineString","coordinates":[[-73.54383,-43.10072],[-73.54294,-43.09962],[-73.54273,-43.09954],[-73.54242,-43.0995],[-73.5417,-43.09956],[-73.54123,-43.09969],[-73.5408,-43.09996],[-73.54054,-43.10026],[-73.54036,-43.1008],[-73.54018,-43.1011],[-73.53956,-43.10152]]}},{"type":"Feature","properties":{"nombre":"Ruta W-881","jerarquia":5},"geometry":{"type":"LineString","coordinates":[[-73.53956,-43.10152],[-73.53941,-43.10175],[-73.53927,-43.10209]]}},{"type":"Feature","properties":{"nombre":"Ruta W-881","jerarquia":5},"geometry":{"type":"LineString","coordinates":[[-73.53927,-43.10209],[-73.53904,-43.10326]]}},{"type":"Feature","properties":{"nombre":"Ruta W-881","jerarquia":5},"geometry":{"type":"LineString","coordinates":[[-73.53904,-43.10326],[-73.53869,-43.10427],[-73.53726,-43.10729]]}},{"type":"Feature","properties":{"nombre":"Ruta W-881","jerarquia":5},"geometry":{"type":"LineString","coordinates":[[-73.53726,-43.10729],[-73.53643,-43.10871],[-73.53598,-43.10929]]}},{"type":"Feature","properties":{"nombre":"Ruta W-881","jerarquia":5},"geometry":{"type":"LineString","coordinates":[[-73.53598,-43.10929],[-73.53396,-43.11161]]}},{"type":"Feature","properties":{"nombre":"Ruta W-881","jerarquia":5},"geometry":{"type":"LineString","coordinates":[[-73.53396,-43.11161],[-73.5316,-43.11308],[-73.5244,-43.12068],[-73.5235,-43.12132],[-73.52272,-43.12176],[-73.52228,-43.12196]]}},{"type":"Feature","properties":{"nombre":"Ruta W-881","jerarquia":5},"geometry":{"type":"LineString","coordinates":[[-73.52228,-43.12196],[-73.52098,-43.12244],[-73.5183,-43.12315],[-73.51568,-43.124]]}},{"type":"Feature","properties":{"nombre":"Ruta W-881","jerarquia":5},"geometry":{"type":"LineString","coordinates":[[-73.51568,-43.124],[-73.51426,-43.12432]]}},{"type":"Feature","properties":{"nombre":"Ruta W-881","jerarquia":5},"geometry":{"type":"LineString","coordinates":[[-73.54389,-43.10101],[-73.54383,-43.10072]]}},{"type":"Feature","properties":{"nombre":"Ruta W-881","jerarquia":5},"geometry":{"type":"LineString","coordinates":[[-73.59338,-43.11812],[-73.59165,-43.11815]]}},{"type":"Feature","properties":{"nombre":"Ruta W-881","jerarquia":5},"geometry":{"type":"LineString","coordinates":[[-73.59165,-43.11815],[-73.59032,-43.11824],[-73.58935,-43.11837],[-73.58906,-43.11833],[-73.58841,-43.11802],[-73.58757,-43.1173]]}},{"type":"Feature","properties":{"nombre":"Ruta W-881","jerarquia":5},"geometry":{"type":"LineString","coordinates":[[-73.58757,-43.1173],[-73.5873,-43.11706]]}},{"type":"Feature","properties":{"nombre":"Ruta W-881","jerarquia":5},"geometry":{"type":"LineString","coordinates":[[-73.5873,-43.11706],[-73.58511,-43.11719],[-73.5818,-43.11754]]}},{"type":"Feature","properties":{"nombre":"Ruta W-881","jerarquia":5},"geometry":{"type":"LineString","coordinates":[[-73.5818,-43.11754],[-73.58021,-43.11765]]}},{"type":"Feature","properties":{"nombre":"Ruta W-881","jerarquia":5},"geometry":{"type":"LineString","coordinates":[[-73.58021,-43.11765],[-73.57988,-43.11766]]}},{"type":"Feature","properties":{"nombre":"Ruta W-881","jerarquia":5},"geometry":{"type":"LineString","coordinates":[[-73.57988,-43.11766],[-73.57893,-43.11762]]}},{"type":"Feature","properties":{"nombre":"Ruta W-881","jerarquia":5},"geometry":{"type":"LineString","coordinates":[[-73.57893,-43.11762],[-73.57708,-43.11714]]}},{"type":"Feature","properties":{"nombre":"Ruta W-881","jerarquia":5},"geometry":{"type":"LineString","coordinates":[[-73.57708,-43.11714],[-73.57511,-43.11663]]}},{"type":"Feature","properties":{"nombre":"Ruta W-881","jerarquia":5},"geometry":{"type":"LineString","coordinates":[[-73.57511,-43.11663],[-73.57351,-43.11615]]}},{"type":"Feature","properties":{"nombre":"Ruta W-881","jerarquia":5},"geometry":{"type":"LineString","coordinates":[[-73.57351,-43.11615],[-73.57212,-43.11583],[-73.57075,-43.11526],[-73.57039,-43.11505],[-73.56881,-43.11384]]}},{"type":"Feature","properties":{"nombre":"Ruta W-881","jerarquia":5},"geometry":{"type":"LineString","coordinates":[[-73.56881,-43.11384],[-73.56845,-43.11356]]}},{"type":"Feature","properties":{"nombre":"Ruta W-881","jerarquia":5},"geometry":{"type":"LineString","coordinates":[[-73.56845,-43.11356],[-73.56733,-43.1127],[-73.56696,-43.11236]]}},{"type":"Feature","properties":{"nombre":"Ruta W-881","jerarquia":5},"geometry":{"type":"LineString","coordinates":[[-73.56696,-43.11236],[-73.56653,-43.11186],[-73.56612,-43.11123]]}},{"type":"Feature","properties":{"nombre":"Ruta W-881","jerarquia":5},"geometry":{"type":"LineString","coordinates":[[-73.56612,-43.11123],[-73.56584,-43.11102],[-73.56531,-43.11077]]}},{"type":"Feature","properties":{"nombre":"Ruta W-881","jerarquia":5},"geometry":{"type":"LineString","coordinates":[[-73.56531,-43.11077],[-73.56462,-43.11062],[-73.56395,-43.11064]]}},{"type":"Feature","properties":{"nombre":"Ruta W-881","jerarquia":5},"geometry":{"type":"LineString","coordinates":[[-73.56395,-43.11064],[-73.56326,-43.11068]]}},{"type":"Feature","properties":{"nombre":"Ruta W-881","jerarquia":5},"geometry":{"type":"LineString","coordinates":[[-73.56326,-43.11068],[-73.56212,-43.11083],[-73.56175,-43.11096],[-73.56069,-43.11208],[-73.56037,-43.1123],[-73.55997,-43.11246],[-73.55922,-43.11257]]}},{"type":"Feature","properties":{"nombre":"Ruta W-881","jerarquia":5},"geometry":{"type":"LineString","coordinates":[[-73.55922,-43.11257],[-73.55835,-43.11268]]}},{"type":"Feature","properties":{"nombre":"Ruta W-881","jerarquia":5},"geometry":{"type":"LineString","coordinates":[[-73.55835,-43.11268],[-73.55766,-43.11268]]}},{"type":"Feature","properties":{"nombre":"Ruta W-881","jerarquia":5},"geometry":{"type":"LineString","coordinates":[[-73.55766,-43.11268],[-73.55742,-43.11258],[-73.55692,-43.11214]]}},{"type":"Feature","properties":{"nombre":"Ruta W-881","jerarquia":5},"geometry":{"type":"LineString","coordinates":[[-73.55692,-43.11214],[-73.55658,-43.11198],[-73.556,-43.11198]]}},{"type":"Feature","properties":{"nombre":"Ruta W-881","jerarquia":5},"geometry":{"type":"LineString","coordinates":[[-73.556,-43.11198],[-73.55331,-43.11211],[-73.55108,-43.1118]]}},{"type":"Feature","properties":{"nombre":"Ruta W-881","jerarquia":5},"geometry":{"type":"LineString","coordinates":[[-73.55108,-43.1118],[-73.55014,-43.11137],[-73.54844,-43.11045],[-73.54761,-43.10978],[-73.54387,-43.10703],[-73.54357,-43.10653],[-73.5434,-43.1058],[-73.54329,-43.10489]]}},{"type":"Feature","properties":{"nombre":"Ruta W-881","jerarquia":5},"geometry":{"type":"LineString","coordinates":[[-73.54329,-43.10489],[-73.54326,-43.10451],[-73.543,-43.10328],[-73.54321,-43.10238],[-73.5434,-43.1019]]}},{"type":"Feature","properties":{"nombre":"Ruta W-881","jerarquia":5},"geometry":{"type":"LineString","coordinates":[[-73.5434,-43.1019],[-73.5438,-43.10129],[-73.54389,-43.10101]]}},{"type":"Feature","properties":{"nombre":"Ruta W-872","jerarquia":5},"geometry":{"type":"LineString","coordinates":[[-73.64341,-43.12938],[-73.64343,-43.13002]]}},{"type":"Feature","properties":{"nombre":"Galvarino Riveros","jerarquia":5},"geometry":{"type":"LineString","coordinates":[[-73.61252,-43.11539],[-73.6124,-43.11576]]}},{"type":"Feature","properties":{"nombre":"Galvarino Riveros","jerarquia":5},"geometry":{"type":"LineString","coordinates":[[-73.6124,-43.11576],[-73.61233,-43.11608]]}},{"type":"Feature","properties":{"nombre":"Galvarino Riveros","jerarquia":5},"geometry":{"type":"LineString","coordinates":[[-73.61233,-43.11608],[-73.61222,-43.11644]]}},{"type":"Feature","properties":{"nombre":"Galvarino Riveros","jerarquia":5},"geometry":{"type":"LineString","coordinates":[[-73.61222,-43.11644],[-73.61219,-43.11656]]}},{"type":"Feature","properties":{"nombre":"Galvarino Riveros","jerarquia":5},"geometry":{"type":"LineString","coordinates":[[-73.61219,-43.11656],[-73.6122,-43.11683]]}},{"type":"Feature","properties":{"nombre":"Galvarino Riveros","jerarquia":5},"geometry":{"type":"LineString","coordinates":[[-73.6122,-43.11683],[-73.6122,-43.11761]]}},{"type":"Feature","properties":{"nombre":"Galvarino Riveros","jerarquia":5},"geometry":{"type":"LineString","coordinates":[[-73.6122,-43.11761],[-73.6122,-43.11771]]}},{"type":"Feature","properties":{"nombre":"Libertad","jerarquia":5},"geometry":{"type":"LineString","coordinates":[[-73.61852,-43.11001],[-73.61882,-43.11019]]}},{"type":"Feature","properties":{"nombre":"Libertad","jerarquia":5},"geometry":{"type":"LineString","coordinates":[[-73.61882,-43.11019],[-73.61924,-43.11045]]}},{"type":"Feature","properties":{"nombre":"Libertad","jerarquia":5},"geometry":{"type":"LineString","coordinates":[[-73.61924,-43.11045],[-73.62042,-43.11113]]}},{"type":"Feature","properties":{"nombre":"Agustín Gómez García","jerarquia":2},"geometry":{"type":"LineString","coordinates":[[-73.62106,-43.11917],[-73.62128,-43.12004]]}},{"type":"Feature","properties":{"nombre":"Agustín Gómez García","jerarquia":2},"geometry":{"type":"LineString","coordinates":[[-73.62128,-43.12004],[-73.62149,-43.12088]]}},{"type":"Feature","properties":{"nombre":"Avenida Adán Bustamante","jerarquia":2},"geometry":{"type":"LineString","coordinates":[[-73.60734,-43.10741],[-73.60706,-43.10811]]}},{"type":"Feature","properties":{"nombre":"Avenida Adán Bustamante","jerarquia":2},"geometry":{"type":"LineString","coordinates":[[-73.60706,-43.10811],[-73.60686,-43.10865]]}},{"type":"Feature","properties":{"nombre":"Avenida Adán Bustamante","jerarquia":2},"geometry":{"type":"LineString","coordinates":[[-73.60686,-43.10865],[-73.60673,-43.10902]]}},{"type":"Feature","properties":{"nombre":"Santos Vargas","jerarquia":5},"geometry":{"type":"LineString","coordinates":[[-73.62222,-43.11895],[-73.62106,-43.11917]]}},{"type":"Feature","properties":{"nombre":"Santos Vargas","jerarquia":5},"geometry":{"type":"LineString","coordinates":[[-73.62106,-43.11917],[-73.61974,-43.11921]]}},{"type":"Feature","properties":{"nombre":"Santos Vargas","jerarquia":5},"geometry":{"type":"LineString","coordinates":[[-73.61974,-43.11921],[-73.61963,-43.11921]]}},{"type":"Feature","properties":{"nombre":"Santos Vargas","jerarquia":5},"geometry":{"type":"LineString","coordinates":[[-73.61963,-43.11921],[-73.61822,-43.11924]]}},{"type":"Feature","properties":{"nombre":"Santos Vargas","jerarquia":5},"geometry":{"type":"LineString","coordinates":[[-73.61822,-43.11924],[-73.61695,-43.11928]]}},{"type":"Feature","properties":{"nombre":"Santos Vargas","jerarquia":5},"geometry":{"type":"LineString","coordinates":[[-73.61695,-43.11928],[-73.61452,-43.1193]]}},{"type":"Feature","properties":{"nombre":"Santos Vargas","jerarquia":5},"geometry":{"type":"LineString","coordinates":[[-73.61452,-43.1193],[-73.61331,-43.11925]]}},{"type":"Feature","properties":{"nombre":"Santos Vargas","jerarquia":5},"geometry":{"type":"LineString","coordinates":[[-73.61331,-43.11925],[-73.61206,-43.1192]]}},{"type":"Feature","properties":{"nombre":"Santos Vargas","jerarquia":5},"geometry":{"type":"LineString","coordinates":[[-73.61206,-43.1192],[-73.61061,-43.11913]]}},{"type":"Feature","properties":{"nombre":"Santos Vargas","jerarquia":5},"geometry":{"type":"LineString","coordinates":[[-73.61061,-43.11913],[-73.60959,-43.11908]]}},{"type":"Feature","properties":{"nombre":"Avenida La Paz","jerarquia":5},"geometry":{"type":"LineString","coordinates":[[-73.61963,-43.11975],[-73.61963,-43.11921]]}},{"type":"Feature","properties":{"nombre":"Ruta W-875","jerarquia":5},"geometry":{"type":"LineString","coordinates":[[-73.56663,-43.05972],[-73.56398,-43.06164],[-73.56323,-43.06225]]}},{"type":"Feature","properties":{"nombre":"Ruta W-875","jerarquia":5},"geometry":{"type":"LineString","coordinates":[[-73.56323,-43.06225],[-73.56246,-43.06284],[-73.56241,-43.06308]]}},{"type":"Feature","properties":{"nombre":"Ruta W-875","jerarquia":5},"geometry":{"type":"LineString","coordinates":[[-73.56241,-43.06308],[-73.56231,-43.06321],[-73.56201,-43.06329]]}},{"type":"Feature","properties":{"nombre":"Ruta W-875","jerarquia":5},"geometry":{"type":"LineString","coordinates":[[-73.56201,-43.06329],[-73.56148,-43.0634],[-73.56081,-43.06379]]}},{"type":"Feature","properties":{"nombre":"Avenida Adán Bustamante","jerarquia":2},"geometry":{"type":"LineString","coordinates":[[-73.608,-43.11787],[-73.60958,-43.11784]]}},{"type":"Feature","properties":{"nombre":"Avenida La Paz","jerarquia":5},"geometry":{"type":"LineString","coordinates":[[-73.61974,-43.11921],[-73.61971,-43.11974]]}},{"type":"Feature","properties":{"nombre":"Avenida La Paz","jerarquia":5},"geometry":{"type":"LineString","coordinates":[[-73.61971,-43.11974],[-73.61971,-43.12026],[-73.61961,-43.1203]]}},{"type":"Feature","properties":{"nombre":"Avenida La Paz","jerarquia":5},"geometry":{"type":"LineString","coordinates":[[-73.61962,-43.11742],[-73.61966,-43.11747]]}},{"type":"Feature","properties":{"nombre":"Avenida La Paz","jerarquia":5},"geometry":{"type":"LineString","coordinates":[[-73.61961,-43.1203],[-73.61963,-43.11975]]}},{"type":"Feature","properties":{"nombre":"Galvarino Riveros","jerarquia":5},"geometry":{"type":"LineString","coordinates":[[-73.61307,-43.11349],[-73.61295,-43.11381]]}},{"type":"Feature","properties":{"nombre":"Galvarino Riveros","jerarquia":5},"geometry":{"type":"LineString","coordinates":[[-73.61321,-43.11317],[-73.61307,-43.11349]]}},{"type":"Feature","properties":{"nombre":"Galvarino Riveros","jerarquia":5},"geometry":{"type":"LineString","coordinates":[[-73.61295,-43.11381],[-73.6128,-43.11415]]}},{"type":"Feature","properties":{"nombre":"Galvarino Riveros","jerarquia":5},"geometry":{"type":"LineString","coordinates":[[-73.6128,-43.11415],[-73.61266,-43.11467]]}},{"type":"Feature","properties":{"nombre":"Galvarino Riveros","jerarquia":5},"geometry":{"type":"LineString","coordinates":[[-73.61266,-43.11467],[-73.61262,-43.11482]]}},{"type":"Feature","properties":{"nombre":"Galvarino Riveros","jerarquia":5},"geometry":{"type":"LineString","coordinates":[[-73.61262,-43.11482],[-73.61265,-43.11491]]}},{"type":"Feature","properties":{"nombre":"Galvarino Riveros","jerarquia":5},"geometry":{"type":"LineString","coordinates":[[-73.61265,-43.11491],[-73.61252,-43.11539]]}},{"type":"Feature","properties":{"nombre":"Galvarino Riveros","jerarquia":5},"geometry":{"type":"LineString","coordinates":[[-73.61334,-43.11284],[-73.61321,-43.11317]]}},{"type":"Feature","properties":{"nombre":"","jerarquia":5},"geometry":{"type":"LineString","coordinates":[[-73.63999,-43.11992],[-73.63988,-43.12009]]}},{"type":"Feature","properties":{"nombre":"Ruta W-902","jerarquia":5},"geometry":{"type":"LineString","coordinates":[[-73.63999,-43.11992],[-73.64125,-43.11982],[-73.6416,-43.11972],[-73.64183,-43.11955],[-73.64248,-43.11868]]}},{"type":"Feature","properties":{"nombre":"Ruta W-902","jerarquia":5},"geometry":{"type":"LineString","coordinates":[[-73.64248,-43.11868],[-73.64277,-43.11829],[-73.64301,-43.11807],[-73.64361,-43.11763],[-73.64426,-43.1173]]}},{"type":"Feature","properties":{"nombre":"Ruta W-902","jerarquia":5},"geometry":{"type":"LineString","coordinates":[[-73.64426,-43.1173],[-73.64689,-43.11679]]}},{"type":"Feature","properties":{"nombre":"Ruta W-902","jerarquia":5},"geometry":{"type":"LineString","coordinates":[[-73.64689,-43.11679],[-73.64762,-43.1166],[-73.64809,-43.11643],[-73.64851,-43.11624],[-73.64971,-43.11554],[-73.65019,-43.11535],[-73.65178,-43.11506],[-73.65354,-43.11516],[-73.65395,-43.11512]]}},{"type":"Feature","properties":{"nombre":"Ruta W-902","jerarquia":5},"geometry":{"type":"LineString","coordinates":[[-73.65395,-43.11512],[-73.65428,-43.115],[-73.65513,-43.1145]]}},{"type":"Feature","properties":{"nombre":"Ruta W-902","jerarquia":5},"geometry":{"type":"LineString","coordinates":[[-73.65513,-43.1145],[-73.65594,-43.11393],[-73.6562,-43.11382],[-73.65649,-43.11378],[-73.6574,-43.11383],[-73.65779,-43.1138],[-73.65836,-43.11364],[-73.66011,-43.11255],[-73.66038,-43.11231],[-73.66058,-43.11202],[-73.66068,-43.11179],[-73.66089,-43.11088],[-73.66109,-43.11052],[-73.66245,-43.10937],[-73.66316,-43.10839],[-73.66342,-43.10815],[-73.66364,-43.10802],[-73.66826,-43.10613],[-73.67005,-43.10573],[-73.67304,-43.10455],[-73.67402,-43.10423],[-73.67625,-43.10385],[-73.67815,-43.10338],[-73.67861,-43.1032],[-73.67906,-43.10293],[-73.67931,-43.10267],[-73.67944,-43.10244],[-73.6797,-43.10167],[-73.68007,-43.10124],[-73.68087,-43.1006],[-73.68215,-43.09977]]}},{"type":"Feature","properties":{"nombre":"Ruta W-902","jerarquia":5},"geometry":{"type":"LineString","coordinates":[[-73.68215,-43.09977],[-73.68231,-43.09967]]}},{"type":"Feature","properties":{"nombre":"Ruta W-902","jerarquia":5},"geometry":{"type":"LineString","coordinates":[[-73.68231,-43.09967],[-73.68255,-43.09959],[-73.68362,-43.09947],[-73.68399,-43.09938],[-73.68535,-43.09881],[-73.68813,-43.09805],[-73.68893,-43.09788],[-73.68926,-43.0979],[-73.68951,-43.09799],[-73.68994,-43.09835],[-73.69246,-43.09998],[-73.69279,-43.10034],[-73.69303,-43.10101],[-73.69317,-43.10123]]}},{"type":"Feature","properties":{"nombre":"Avenida Adán Bustamante","jerarquia":2},"geometry":{"type":"LineString","coordinates":[[-73.60483,-43.11626],[-73.60528,-43.11682],[-73.60601,-43.11736]]}},{"type":"Feature","properties":{"nombre":"Avenida Adán Bustamante","jerarquia":2},"geometry":{"type":"LineString","coordinates":[[-73.60601,-43.11736],[-73.60655,-43.11761],[-73.60708,-43.11778]]}},{"type":"Feature","properties":{"nombre":"Avenida Adán Bustamante","jerarquia":2},"geometry":{"type":"LineString","coordinates":[[-73.60708,-43.11778],[-73.608,-43.11787]]}},{"type":"Feature","properties":{"nombre":"Juan Ladrillero","jerarquia":4},"geometry":{"type":"LineString","coordinates":[[-73.62368,-43.11728],[-73.62546,-43.11717]]}},{"type":"Feature","properties":{"nombre":"Juan Ladrillero","jerarquia":4},"geometry":{"type":"LineString","coordinates":[[-73.62546,-43.11717],[-73.6256,-43.11716]]}},{"type":"Feature","properties":{"nombre":"Juan Ladrillero","jerarquia":4},"geometry":{"type":"LineString","coordinates":[[-73.6256,-43.11716],[-73.62671,-43.11694]]}},{"type":"Feature","properties":{"nombre":"Juan Ladrillero","jerarquia":4},"geometry":{"type":"LineString","coordinates":[[-73.62671,-43.11694],[-73.6273,-43.11681]]}},{"type":"Feature","properties":{"nombre":"Juan Ladrillero","jerarquia":4},"geometry":{"type":"LineString","coordinates":[[-73.6273,-43.11681],[-73.62789,-43.11668]]}},{"type":"Feature","properties":{"nombre":"Juan Ladrillero","jerarquia":4},"geometry":{"type":"LineString","coordinates":[[-73.62789,-43.11668],[-73.62849,-43.11656]]}},{"type":"Feature","properties":{"nombre":"Juan Ladrillero","jerarquia":4},"geometry":{"type":"LineString","coordinates":[[-73.62849,-43.11656],[-73.62913,-43.11649],[-73.63061,-43.11649]]}},{"type":"Feature","properties":{"nombre":"Juan Ladrillero","jerarquia":4},"geometry":{"type":"LineString","coordinates":[[-73.63061,-43.11649],[-73.6311,-43.11649]]}},{"type":"Feature","properties":{"nombre":"Juan Ladrillero","jerarquia":4},"geometry":{"type":"LineString","coordinates":[[-73.6311,-43.11649],[-73.63171,-43.11649]]}},{"type":"Feature","properties":{"nombre":"Juan Ladrillero","jerarquia":4},"geometry":{"type":"LineString","coordinates":[[-73.63171,-43.11649],[-73.63201,-43.11649]]}},{"type":"Feature","properties":{"nombre":"","jerarquia":4},"geometry":{"type":"LineString","coordinates":[[-73.61742,-43.13824],[-73.61732,-43.13821],[-73.61733,-43.13814],[-73.61754,-43.13806],[-73.61777,-43.13808]]}},{"type":"Feature","properties":{"nombre":"Independencia","jerarquia":5},"geometry":{"type":"LineString","coordinates":[[-73.6073,-43.11365],[-73.60736,-43.11327]]}},{"type":"Feature","properties":{"nombre":"Independencia","jerarquia":5},"geometry":{"type":"LineString","coordinates":[[-73.60736,-43.11327],[-73.60743,-43.11283]]}},{"type":"Feature","properties":{"nombre":"Independencia","jerarquia":5},"geometry":{"type":"LineString","coordinates":[[-73.60743,-43.11283],[-73.60746,-43.11253]]}},{"type":"Feature","properties":{"nombre":"Independencia","jerarquia":5},"geometry":{"type":"LineString","coordinates":[[-73.60746,-43.11253],[-73.60749,-43.11195],[-73.60746,-43.11177]]}},{"type":"Feature","properties":{"nombre":"Independencia","jerarquia":5},"geometry":{"type":"LineString","coordinates":[[-73.60746,-43.11177],[-73.60726,-43.11091]]}},{"type":"Feature","properties":{"nombre":"Independencia","jerarquia":5},"geometry":{"type":"LineString","coordinates":[[-73.60726,-43.11091],[-73.60692,-43.10916],[-73.60673,-43.10902]]}},{"type":"Feature","properties":{"nombre":"Juan Ladrillero","jerarquia":2},"geometry":{"type":"LineString","coordinates":[[-73.62117,-43.11736],[-73.62211,-43.11731]]}},{"type":"Feature","properties":{"nombre":"Costanera Pedro Montt","jerarquia":2},"geometry":{"type":"LineString","coordinates":[[-73.62149,-43.12088],[-73.62194,-43.12079],[-73.62262,-43.1205]]}},{"type":"Feature","properties":{"nombre":"Pedro Aguirre Cerda","jerarquia":2},"geometry":{"type":"LineString","coordinates":[[-73.62222,-43.11895],[-73.62215,-43.11791]]}},{"type":"Feature","properties":{"nombre":"Pedro Aguirre Cerda","jerarquia":2},"geometry":{"type":"LineString","coordinates":[[-73.62215,-43.11791],[-73.62212,-43.11747]]}},{"type":"Feature","properties":{"nombre":"Pedro Aguirre Cerda","jerarquia":2},"geometry":{"type":"LineString","coordinates":[[-73.62212,-43.11747],[-73.62212,-43.11738]]}},{"type":"Feature","properties":{"nombre":"Ruta 5 Sur","jerarquia":2},"geometry":{"type":"LineString","coordinates":[[-73.63491,-43.0641],[-73.63385,-43.06659]]}},{"type":"Feature","properties":{"nombre":"Ruta 5 Sur","jerarquia":2},"geometry":{"type":"LineString","coordinates":[[-73.63385,-43.06659],[-73.6336,-43.06719]]}},{"type":"Feature","properties":{"nombre":"Ruta 5 Sur","jerarquia":2},"geometry":{"type":"LineString","coordinates":[[-73.63475,-43.06319],[-73.63494,-43.06368],[-73.63491,-43.0641]]}},{"type":"Feature","properties":{"nombre":"Ruta 5 Sur","jerarquia":2},"geometry":{"type":"LineString","coordinates":[[-73.63349,-43.06142],[-73.63469,-43.0631]]}},{"type":"Feature","properties":{"nombre":"Ruta 5 Sur","jerarquia":2},"geometry":{"type":"LineString","coordinates":[[-73.63469,-43.0631],[-73.63475,-43.06319]]}},{"type":"Feature","properties":{"nombre":"Ruta 5 Sur","jerarquia":2},"geometry":{"type":"LineString","coordinates":[[-73.63303,-43.06074],[-73.63349,-43.06142]]}},{"type":"Feature","properties":{"nombre":"Ruta 5 Sur","jerarquia":2},"geometry":{"type":"LineString","coordinates":[[-73.61874,-43.08629],[-73.61868,-43.08671]]}},{"type":"Feature","properties":{"nombre":"Ruta 5 Sur","jerarquia":2},"geometry":{"type":"LineString","coordinates":[[-73.61868,-43.08671],[-73.61864,-43.08693]]}},{"type":"Feature","properties":{"nombre":"Ruta 5 Sur","jerarquia":2},"geometry":{"type":"LineString","coordinates":[[-73.6189,-43.08531],[-73.61887,-43.08545]]}},{"type":"Feature","properties":{"nombre":"Ruta 5 Sur","jerarquia":2},"geometry":{"type":"LineString","coordinates":[[-73.61887,-43.08545],[-73.61874,-43.08629]]}},{"type":"Feature","properties":{"nombre":"Ruta 5 Sur","jerarquia":2},"geometry":{"type":"LineString","coordinates":[[-73.62742,-43.08131],[-73.62699,-43.08158]]}},{"type":"Feature","properties":{"nombre":"Ruta 5 Sur","jerarquia":2},"geometry":{"type":"LineString","coordinates":[[-73.62699,-43.08158],[-73.62641,-43.08186],[-73.6258,-43.08208],[-73.62467,-43.08233]]}},{"type":"Feature","properties":{"nombre":"Ruta 5 Sur","jerarquia":2},"geometry":{"type":"LineString","coordinates":[[-73.62467,-43.08233],[-73.62403,-43.08239],[-73.62203,-43.08241],[-73.62129,-43.08257],[-73.62059,-43.08284],[-73.61988,-43.08329],[-73.61935,-43.08385],[-73.61903,-43.08452],[-73.6189,-43.08531]]}},{"type":"Feature","properties":{"nombre":"Ruta 5 Sur","jerarquia":2},"geometry":{"type":"LineString","coordinates":[[-73.62821,-43.08072],[-73.62766,-43.08113]]}},{"type":"Feature","properties":{"nombre":"Ruta 5 Sur","jerarquia":2},"geometry":{"type":"LineString","coordinates":[[-73.62766,-43.08113],[-73.62742,-43.08131]]}},{"type":"Feature","properties":{"nombre":"Ruta 5 Sur","jerarquia":2},"geometry":{"type":"LineString","coordinates":[[-73.6293,-43.07992],[-73.62821,-43.08072]]}},{"type":"Feature","properties":{"nombre":"Ruta 5 Sur","jerarquia":2},"geometry":{"type":"LineString","coordinates":[[-73.63018,-43.07927],[-73.6293,-43.07992]]}},{"type":"Feature","properties":{"nombre":"Ruta 5 Sur","jerarquia":2},"geometry":{"type":"LineString","coordinates":[[-73.63079,-43.07882],[-73.63018,-43.07927]]}},{"type":"Feature","properties":{"nombre":"Ruta 5 Sur","jerarquia":2},"geometry":{"type":"LineString","coordinates":[[-73.63199,-43.07792],[-73.63134,-43.07841]]}},{"type":"Feature","properties":{"nombre":"Ruta 5 Sur","jerarquia":2},"geometry":{"type":"LineString","coordinates":[[-73.63134,-43.07841],[-73.63079,-43.07882]]}},{"type":"Feature","properties":{"nombre":"Ruta 5 Sur","jerarquia":2},"geometry":{"type":"LineString","coordinates":[[-73.63272,-43.07735],[-73.63199,-43.07792]]}},{"type":"Feature","properties":{"nombre":"Ruta 5 Sur","jerarquia":2},"geometry":{"type":"LineString","coordinates":[[-73.63367,-43.06891],[-73.6348,-43.07057],[-73.63524,-43.07139],[-73.63542,-43.07184],[-73.63595,-43.07364],[-73.63598,-43.07393]]}},{"type":"Feature","properties":{"nombre":"Ruta 5 Sur","jerarquia":2},"geometry":{"type":"LineString","coordinates":[[-73.63598,-43.07393],[-73.63595,-43.07433],[-73.63576,-43.07485],[-73.63541,-43.07531],[-73.63505,-43.07562]]}},{"type":"Feature","properties":{"nombre":"Ruta 5 Sur","jerarquia":2},"geometry":{"type":"LineString","coordinates":[[-73.63505,-43.07562],[-73.63272,-43.07735]]}},{"type":"Feature","properties":{"nombre":"Ruta 5 Sur","jerarquia":2},"geometry":{"type":"LineString","coordinates":[[-73.6336,-43.06719],[-73.63343,-43.06776],[-73.63341,-43.06803],[-73.63346,-43.06841]]}},{"type":"Feature","properties":{"nombre":"Ruta 5 Sur","jerarquia":2},"geometry":{"type":"LineString","coordinates":[[-73.63346,-43.06841],[-73.63367,-43.06891]]}},{"type":"Feature","properties":{"nombre":"Ruta 5 Sur","jerarquia":2},"geometry":{"type":"LineString","coordinates":[[-73.60917,-43.10492],[-73.60859,-43.10561]]}},{"type":"Feature","properties":{"nombre":"Ruta 5 Sur","jerarquia":2},"geometry":{"type":"LineString","coordinates":[[-73.60859,-43.10561],[-73.60789,-43.10645]]}},{"type":"Feature","properties":{"nombre":"Ruta 5 Sur","jerarquia":2},"geometry":{"type":"LineString","coordinates":[[-73.60961,-43.10418],[-73.60944,-43.10455],[-73.60917,-43.10492]]}},{"type":"Feature","properties":{"nombre":"Ruta 5 Sur","jerarquia":2},"geometry":{"type":"LineString","coordinates":[[-73.61025,-43.10161],[-73.61005,-43.10243]]}},{"type":"Feature","properties":{"nombre":"Ruta 5 Sur","jerarquia":2},"geometry":{"type":"LineString","coordinates":[[-73.61005,-43.10243],[-73.60997,-43.10276]]}},{"type":"Feature","properties":{"nombre":"Ruta 5 Sur","jerarquia":2},"geometry":{"type":"LineString","coordinates":[[-73.60997,-43.10276],[-73.60992,-43.10294]]}},{"type":"Feature","properties":{"nombre":"Ruta 5 Sur","jerarquia":2},"geometry":{"type":"LineString","coordinates":[[-73.60992,-43.10294],[-73.60981,-43.1034]]}},{"type":"Feature","properties":{"nombre":"Ruta 5 Sur","jerarquia":2},"geometry":{"type":"LineString","coordinates":[[-73.60981,-43.1034],[-73.60961,-43.10418]]}},{"type":"Feature","properties":{"nombre":"Ruta 5 Sur","jerarquia":2},"geometry":{"type":"LineString","coordinates":[[-73.61156,-43.09757],[-73.61085,-43.09973]]}},{"type":"Feature","properties":{"nombre":"Ruta 5 Sur","jerarquia":2},"geometry":{"type":"LineString","coordinates":[[-73.61085,-43.09973],[-73.61074,-43.10007]]}},{"type":"Feature","properties":{"nombre":"Ruta 5 Sur","jerarquia":2},"geometry":{"type":"LineString","coordinates":[[-73.61074,-43.10007],[-73.61043,-43.10103]]}},{"type":"Feature","properties":{"nombre":"Ruta 5 Sur","jerarquia":2},"geometry":{"type":"LineString","coordinates":[[-73.61043,-43.10103],[-73.61025,-43.10161]]}},{"type":"Feature","properties":{"nombre":"Ruta 5 Sur","jerarquia":2},"geometry":{"type":"LineString","coordinates":[[-73.61207,-43.09544],[-73.61201,-43.09607]]}},{"type":"Feature","properties":{"nombre":"Ruta 5 Sur","jerarquia":2},"geometry":{"type":"LineString","coordinates":[[-73.61201,-43.09607],[-73.61156,-43.09757]]}},{"type":"Feature","properties":{"nombre":"Ruta 5 Sur","jerarquia":2},"geometry":{"type":"LineString","coordinates":[[-73.61188,-43.09367],[-73.61199,-43.09448]]}},{"type":"Feature","properties":{"nombre":"Ruta 5 Sur","jerarquia":2},"geometry":{"type":"LineString","coordinates":[[-73.61199,-43.09448],[-73.61202,-43.09465]]}},{"type":"Feature","properties":{"nombre":"Ruta 5 Sur","jerarquia":2},"geometry":{"type":"LineString","coordinates":[[-73.60789,-43.10645],[-73.60757,-43.10692]]}},{"type":"Feature","properties":{"nombre":"Ruta 5 Sur","jerarquia":2},"geometry":{"type":"LineString","coordinates":[[-73.60757,-43.10692],[-73.60734,-43.10741]]}},{"type":"Feature","properties":{"nombre":"Ruta 5 Sur","jerarquia":2},"geometry":{"type":"LineString","coordinates":[[-73.61202,-43.09465],[-73.61207,-43.09544]]}},{"type":"Feature","properties":{"nombre":"San Antonio","jerarquia":5},"geometry":{"type":"LineString","coordinates":[[-73.60483,-43.11626],[-73.60474,-43.1163]]}},{"type":"Feature","properties":{"nombre":"Avenida Adán Bustamante","jerarquia":2},"geometry":{"type":"LineString","coordinates":[[-73.60478,-43.11418],[-73.6046,-43.11475]]}},{"type":"Feature","properties":{"nombre":"Avenida Adán Bustamante","jerarquia":2},"geometry":{"type":"LineString","coordinates":[[-73.6046,-43.11475],[-73.60457,-43.11544]]}},{"type":"Feature","properties":{"nombre":"Avenida Adán Bustamante","jerarquia":2},"geometry":{"type":"LineString","coordinates":[[-73.60457,-43.11544],[-73.60466,-43.11586],[-73.60483,-43.11626]]}},{"type":"Feature","properties":{"nombre":"Avenida Adán Bustamante","jerarquia":2},"geometry":{"type":"LineString","coordinates":[[-73.60636,-43.10996],[-73.60478,-43.11418]]}},{"type":"Feature","properties":{"nombre":"Avenida Adán Bustamante","jerarquia":2},"geometry":{"type":"LineString","coordinates":[[-73.60673,-43.10902],[-73.60636,-43.10996]]}},{"type":"Feature","properties":{"nombre":"Juan Ladrillero","jerarquia":4},"geometry":{"type":"LineString","coordinates":[[-73.62356,-43.11726],[-73.62368,-43.11728]]}},{"type":"Feature","properties":{"nombre":"Juan Ladrillero","jerarquia":4},"geometry":{"type":"LineString","coordinates":[[-73.62211,-43.11731],[-73.62356,-43.11726]]}},{"type":"Feature","properties":{"nombre":"Juan Ladrillero","jerarquia":4},"geometry":{"type":"LineString","coordinates":[[-73.62368,-43.11728],[-73.62356,-43.11731]]}},{"type":"Feature","properties":{"nombre":"Juan Ladrillero","jerarquia":2},"geometry":{"type":"LineString","coordinates":[[-73.62212,-43.11738],[-73.62125,-43.11741]]}},{"type":"Feature","properties":{"nombre":"Juan Ladrillero","jerarquia":2},"geometry":{"type":"LineString","coordinates":[[-73.62125,-43.11741],[-73.62115,-43.11741]]}},{"type":"Feature","properties":{"nombre":"Juan Ladrillero","jerarquia":2},"geometry":{"type":"LineString","coordinates":[[-73.61966,-43.11747],[-73.61956,-43.11747]]}},{"type":"Feature","properties":{"nombre":"Juan Ladrillero","jerarquia":2},"geometry":{"type":"LineString","coordinates":[[-73.62115,-43.11741],[-73.61976,-43.11746]]}},{"type":"Feature","properties":{"nombre":"Juan Ladrillero","jerarquia":2},"geometry":{"type":"LineString","coordinates":[[-73.61976,-43.11746],[-73.61966,-43.11747]]}},{"type":"Feature","properties":{"nombre":"Juan Ladrillero","jerarquia":2},"geometry":{"type":"LineString","coordinates":[[-73.61962,-43.11742],[-73.62108,-43.11737]]}},{"type":"Feature","properties":{"nombre":"Juan Ladrillero","jerarquia":2},"geometry":{"type":"LineString","coordinates":[[-73.62108,-43.11737],[-73.62117,-43.11736]]}},{"type":"Feature","properties":{"nombre":"Avenida La Paz","jerarquia":5},"geometry":{"type":"LineString","coordinates":[[-73.61966,-43.11747],[-73.61974,-43.11921]]}},{"type":"Feature","properties":{"nombre":"Avenida La Paz","jerarquia":5},"geometry":{"type":"LineString","coordinates":[[-73.61956,-43.11747],[-73.61962,-43.11742]]}},{"type":"Feature","properties":{"nombre":"Juan Ladrillero","jerarquia":2},"geometry":{"type":"LineString","coordinates":[[-73.6181,-43.11752],[-73.617,-43.11756]]}},{"type":"Feature","properties":{"nombre":"Juan Ladrillero","jerarquia":2},"geometry":{"type":"LineString","coordinates":[[-73.617,-43.11756],[-73.6169,-43.11756]]}},{"type":"Feature","properties":{"nombre":"Juan Ladrillero","jerarquia":2},"geometry":{"type":"LineString","coordinates":[[-73.61956,-43.11747],[-73.6181,-43.11752]]}},{"type":"Feature","properties":{"nombre":"Juan Ladrillero","jerarquia":2},"geometry":{"type":"LineString","coordinates":[[-73.6169,-43.11751],[-73.6181,-43.11746]]}},{"type":"Feature","properties":{"nombre":"Juan Ladrillero","jerarquia":2},"geometry":{"type":"LineString","coordinates":[[-73.6146,-43.11766],[-73.61229,-43.11775]]}},{"type":"Feature","properties":{"nombre":"Juan Ladrillero","jerarquia":2},"geometry":{"type":"LineString","coordinates":[[-73.61229,-43.11775],[-73.6122,-43.11776]]}},{"type":"Feature","properties":{"nombre":"Juan Ladrillero","jerarquia":2},"geometry":{"type":"LineString","coordinates":[[-73.61306,-43.11767],[-73.6146,-43.11761]]}},{"type":"Feature","properties":{"nombre":"Juan Ladrillero","jerarquia":2},"geometry":{"type":"LineString","coordinates":[[-73.6122,-43.11771],[-73.61306,-43.11767]]}},{"type":"Feature","properties":{"nombre":"Galvarino Riveros","jerarquia":5},"geometry":{"type":"LineString","coordinates":[[-73.6122,-43.11776],[-73.61222,-43.11786]]}},{"type":"Feature","properties":{"nombre":"Galvarino Riveros","jerarquia":5},"geometry":{"type":"LineString","coordinates":[[-73.61222,-43.11786],[-73.61206,-43.1192]]}},{"type":"Feature","properties":{"nombre":"Galvarino Riveros","jerarquia":5},"geometry":{"type":"LineString","coordinates":[[-73.61206,-43.1192],[-73.61196,-43.12038]]}},{"type":"Feature","properties":{"nombre":"Galvarino Riveros","jerarquia":5},"geometry":{"type":"LineString","coordinates":[[-73.61196,-43.12038],[-73.61192,-43.12083]]}},{"type":"Feature","properties":{"nombre":"Galvarino Riveros","jerarquia":5},"geometry":{"type":"LineString","coordinates":[[-73.6122,-43.11771],[-73.6122,-43.11776]]}},{"type":"Feature","properties":{"nombre":"Juan Ladrillero","jerarquia":2},"geometry":{"type":"LineString","coordinates":[[-73.6122,-43.11776],[-73.61009,-43.11784]]}},{"type":"Feature","properties":{"nombre":"Juan Ladrillero","jerarquia":2},"geometry":{"type":"LineString","coordinates":[[-73.61009,-43.11779],[-73.6121,-43.11771]]}},{"type":"Feature","properties":{"nombre":"Juan Ladrillero","jerarquia":2},"geometry":{"type":"LineString","coordinates":[[-73.6121,-43.11771],[-73.6122,-43.11771]]}},{"type":"Feature","properties":{"nombre":"Juan Ladrillero","jerarquia":2},"geometry":{"type":"LineString","coordinates":[[-73.6169,-43.11756],[-73.6146,-43.11766]]}},{"type":"Feature","properties":{"nombre":"Juan Ladrillero","jerarquia":2},"geometry":{"type":"LineString","coordinates":[[-73.61009,-43.11784],[-73.60958,-43.11784]]}},{"type":"Feature","properties":{"nombre":"Juan Ladrillero","jerarquia":2},"geometry":{"type":"LineString","coordinates":[[-73.60958,-43.11784],[-73.61009,-43.11779]]}},{"type":"Feature","properties":{"nombre":"Juan Ladrillero","jerarquia":2},"geometry":{"type":"LineString","coordinates":[[-73.6181,-43.11746],[-73.61952,-43.11742]]}},{"type":"Feature","properties":{"nombre":"Juan Ladrillero","jerarquia":2},"geometry":{"type":"LineString","coordinates":[[-73.61952,-43.11742],[-73.61962,-43.11742]]}},{"type":"Feature","properties":{"nombre":"Pedro Aguirre Cerda","jerarquia":2},"geometry":{"type":"LineString","coordinates":[[-73.62212,-43.11738],[-73.62211,-43.11731]]}},{"type":"Feature","properties":{"nombre":"Agustín Gómez García","jerarquia":2},"geometry":{"type":"LineString","coordinates":[[-73.62117,-43.11736],[-73.62115,-43.11741]]}},{"type":"Feature","properties":{"nombre":"Juan Ladrillero","jerarquia":4},"geometry":{"type":"LineString","coordinates":[[-73.62356,-43.11731],[-73.62212,-43.11738]]}},{"type":"Feature","properties":{"nombre":"Costanera Pedro Montt","jerarquia":5},"geometry":{"type":"LineString","coordinates":[[-73.59461,-43.12005],[-73.59591,-43.1201]]}},{"type":"Feature","properties":{"nombre":"Costanera Pedro Montt","jerarquia":5},"geometry":{"type":"LineString","coordinates":[[-73.59591,-43.1201],[-73.59769,-43.12024],[-73.60001,-43.12024]]}},{"type":"Feature","properties":{"nombre":"Costanera Pedro Montt","jerarquia":5},"geometry":{"type":"LineString","coordinates":[[-73.60001,-43.12024],[-73.60121,-43.12016],[-73.60366,-43.12044],[-73.60527,-43.12052]]}},{"type":"Feature","properties":{"nombre":"Costanera Pedro Montt","jerarquia":5},"geometry":{"type":"LineString","coordinates":[[-73.60527,-43.12052],[-73.6064,-43.12074],[-73.60743,-43.12074],[-73.60777,-43.12064],[-73.60805,-43.12064]]}},{"type":"Feature","properties":{"nombre":"Costanera Pedro Montt","jerarquia":5},"geometry":{"type":"LineString","coordinates":[[-73.60805,-43.12064],[-73.60815,-43.12067]]}}]}